{"type":"Topology","arcs":[],"objects":{"ne_10m_populated_places":{"type":"GeometryCollection","geometries":[{"type":"Point","coordinates":[100.1899987,6.433002],"properties":{"SCALERANK":10,"NATSCALE":1,"LABELRANK":6,"FEATURECLA":"Admin-1 capital","NAME":"Kangar","NAMEPAR":"","NAMEALT":"","NAMEASCII":"Kangar","ADM0CAP":0,"CAPIN":"","WORLDCITY":0,"MEGACITY":0,"SOV0NAME":"Malaysia","SOV_A3":"MYS","ADM0NAME":"Malaysia","ADM0_A3":"MYS","ADM1NAME":"Perlis","ISO_A2":"MY","NOTE":"","LATITUDE":6.433002,"LONGITUDE":100.189999,"POP_MAX":63869,"POP_MIN":63869,"POP_OTHER":0,"RANK_MAX":8,"RANK_MIN":8,"MEGANAME":"","LS_NAME":"","MAX_POP10":0,"MAX_POP20":0,"MAX_POP50":0,"MAX_POP300":0,"MAX_POP310":0,"MAX_NATSCA":0,"MIN_AREAKM":0,"MAX_AREAKM":0,"MIN_AREAMI":0,"MAX_AREAMI":0,"MIN_PERKM":0,"MAX_PERKM":0,"MIN_PERMI":0,"MAX_PERMI":0,"MIN_BBXMIN":0,"MAX_BBXMIN":0,"MIN_BBXMAX":0,"MAX_BBXMAX":0,"MIN_BBYMIN":0,"MAX_BBYMIN":0,"MIN_BBYMAX":0,"MAX_BBYMAX":0,"MEAN_BBXC":0,"MEAN_BBYC":0,"TIMEZONE":"Asia/Kuala_Lumpur","UN_FID":0,"POP1950":0,"POP1955":0,"POP1960":0,"POP1965":0,"POP1970":0,"POP1975":0,"POP1980":0,"POP1985":0,"POP1990":0,"POP1995":0,"POP2000":0,"POP2005":0,"POP2010":0,"POP2015":0,"POP2020":0,"POP2025":0,"POP2050":0,"MIN_ZOOM":9,"WIKIDATAID":"Q921155","WOF_ID":102023603,"CAPALT":0,"NAME_EN":"Kangar","NAME_DE":"Kangar","NAME_ES":"Kangar","NAME_FR":"Kangar","NAME_PT":"Kangar","NAME_RU":"Кангар","NAME_ZH":"加央","LABEL":"","NAME_AR":"كانجار","NAME_BN":"কাঙ্গার","NAME_EL":"Κανγκάρ","NAME_HI":"कंगार","NAME_HU":"Kangar","NAME_ID":"Kangar","NAME_IT":"Kangar","NAME_JA":"カンガー","NAME_KO":"캉아르","NAME_NL":"Kangar","NAME_PL":"Kangar","NAME_SV":"Kangar","NAME_TR":"Kangar","NAME_VI":"Kangar","NE_ID":1159117415,"NAME_FA":"کانگار","NAME_HE":"קנגר","NAME_UK":"Кангар","NAME_UR":"کانگر","NAME_ZHT":"加央","GEONAMESID":1736278,"FCLASS_ISO":"","FCLASS_US":"","FCLASS_FR":"","FCLASS_RU":"","FCLASS_ES":"","FCLASS_CN":"","FCLASS_TW":"","FCLASS_IN":"","FCLASS_NP":"","FCLASS_PK":"","FCLASS_DE":"","FCLASS_GB":"","FCLASS_BR":"","FCLASS_IL":"","FCLASS_PS":"","FCLASS_SA":"","FCLASS_EG":"","FCLASS_MA":"","FCLASS_PT":"","FCLASS_AR":"","FCLASS_JP":"","FCLASS_KO":"","FCLASS_VN":"","FCLASS_TR":"","FCLASS_ID":"","FCLASS_PL":"","FCLASS_GR":"","FCLASS_IT":"","FCLASS_NL":"","FCLASS_SE":"","FCLASS_BD":"","FCLASS_UA":"","FCLASS_TLC":""}},{"type":"Point","coordinates":[102.0420006,4.1840011],"properties":{"SCALERANK":10,"NATSCALE":1,"LABELRANK":6,"FEATURECLA":"Admin-1 capital","NAME":"Kuala Lipis","NAMEPAR":"","NAMEALT":"","NAMEASCII":"Kuala Lipis","ADM0CAP":0,"CAPIN":"","WORLDCITY":0,"MEGACITY":0,"SOV0NAME":"Malaysia","SOV_A3":"MYS","ADM0NAME":"Malaysia","ADM0_A3":"MYS","ADM1NAME":"Pahang","ISO_A2":"MY","NOTE":"","LATITUDE":4.184001,"LONGITUDE":102.042001,"POP_MAX":15448,"POP_MIN":15448,"POP_OTHER":0,"RANK_MAX":6,"RANK_MIN":6,"MEGANAME":"","LS_NAME":"","MAX_POP10":0,"MAX_POP20":0,"MAX_POP50":0,"MAX_POP300":0,"MAX_POP310":0,"MAX_NATSCA":0,"MIN_AREAKM":0,"MAX_AREAKM":0,"MIN_AREAMI":0,"MAX_AREAMI":0,"MIN_PERKM":0,"MAX_PERKM":0,"MIN_PERMI":0,"MAX_PERMI":0,"MIN_BBXMIN":0,"MAX_BBXMIN":0,"MIN_BBXMAX":0,"MAX_BBXMAX":0,"MIN_BBYMIN":0,"MAX_BBYMIN":0,"MIN_BBYMAX":0,"MAX_BBYMAX":0,"MEAN_BBXC":0,"MEAN_BBYC":0,"TIMEZONE":"Asia/Kuala_Lumpur","UN_FID":0,"POP1950":0,"POP1955":0,"POP1960":0,"POP1965":0,"POP1970":0,"POP1975":0,"POP1980":0,"POP1985":0,"POP1990":0,"POP1995":0,"POP2000":0,"POP2005":0,"POP2010":0,"POP2015":0,"POP2020":0,"POP2025":0,"POP2050":0,"MIN_ZOOM":9,"WIKIDATAID":"Q2240800","WOF_ID":102022855,"CAPALT":0,"NAME_EN":"Kuala Lipis","NAME_DE":"Kuala Lipis","NAME_ES":"Kuala Lipis","NAME_FR":"Kuala Lipis","NAME_PT":"Kuala Lipis","NAME_RU":"Куала-Липис","NAME_ZH":"瓜拉立卑","LABEL":"","NAME_AR":"كوالا ليبيز","NAME_BN":"কুয়ালা লিপিস","NAME_EL":"Κουάλα Λιπίς","NAME_HI":"क्वाला लिपिस","NAME_HU":"Kuala Lipis","NAME_ID":"Kuala Lipis","NAME_IT":"Kuala Lipis","NAME_JA":"クアラリピス","NAME_KO":"쿠알라리피스","NAME_NL":"Kuala Lipis","NAME_PL":"Kuala Lipis","NAME_SV":"Kuala Lipis","NAME_TR":"Kuala Lipis","NAME_VI":"Kuala Lipis","NE_ID":1159117441,"NAME_FA":"کوئالا لیپیس","NAME_HE":"קואלה ליפיס","NAME_UK":"Куала Ліпіс","NAME_UR":"کوالا لیپس","NAME_ZHT":"瓜拉立卑","GEONAMESID":1733023,"FCLASS_ISO":"","FCLASS_US":"","FCLASS_FR":"","FCLASS_RU":"","FCLASS_ES":"","FCLASS_CN":"","FCLASS_TW":"","FCLASS_IN":"","FCLASS_NP":"","FCLASS_PK":"","FCLASS_DE":"","FCLASS_GB":"","FCLASS_BR":"","FCLASS_IL":"","FCLASS_PS":"","FCLASS_SA":"","FCLASS_EG":"","FCLASS_MA":"","FCLASS_PT":"","FCLASS_AR":"","FCLASS_JP":"","FCLASS_KO":"","FCLASS_VN":"","FCLASS_TR":"","FCLASS_ID":"","FCLASS_PL":"","FCLASS_GR":"","FCLASS_IT":"","FCLASS_NL":"","FCLASS_SE":"","FCLASS_BD":"","FCLASS_UA":"","FCLASS_TLC":""}},{"type":"Point","coordinates":[101.5499977,3.066696],"properties":{"SCALERANK":10,"NATSCALE":1,"LABELRANK":6,"FEATURECLA":"Admin-1 capital","NAME":"Shah Alam","NAMEPAR":"","NAMEALT":"","NAMEASCII":"Shah Alam","ADM0CAP":0,"CAPIN":"","WORLDCITY":0,"MEGACITY":0,"SOV0NAME":"Malaysia","SOV_A3":"MYS","ADM0NAME":"Malaysia","ADM0_A3":"MYS","ADM1NAME":"Selangor","ISO_A2":"MY","NOTE":"","LATITUDE":3.066696,"LONGITUDE":101.549998,"POP_MAX":481654,"POP_MIN":481654,"POP_OTHER":0,"RANK_MAX":10,"RANK_MIN":10,"MEGANAME":"","LS_NAME":"","MAX_POP10":0,"MAX_POP20":0,"MAX_POP50":0,"MAX_POP300":0,"MAX_POP310":0,"MAX_NATSCA":0,"MIN_AREAKM":0,"MAX_AREAKM":0,"MIN_AREAMI":0,"MAX_AREAMI":0,"MIN_PERKM":0,"MAX_PERKM":0,"MIN_PERMI":0,"MAX_PERMI":0,"MIN_BBXMIN":0,"MAX_BBXMIN":0,"MIN_BBXMAX":0,"MAX_BBXMAX":0,"MIN_BBYMIN":0,"MAX_BBYMIN":0,"MIN_BBYMAX":0,"MAX_BBYMAX":0,"MEAN_BBXC":0,"MEAN_BBYC":0,"TIMEZONE":"Asia/Kuala_Lumpur","UN_FID":0,"POP1950":0,"POP1955":0,"POP1960":0,"POP1965":0,"POP1970":0,"POP1975":0,"POP1980":0,"POP1985":0,"POP1990":0,"POP1995":0,"POP2000":0,"POP2005":0,"POP2010":0,"POP2015":0,"POP2020":0,"POP2025":0,"POP2050":0,"MIN_ZOOM":9,"WIKIDATAID":"Q500033","WOF_ID":102022833,"CAPALT":0,"NAME_EN":"Shah Alam","NAME_DE":"Shah Alam","NAME_ES":"Shah Alam","NAME_FR":"Shah Alam","NAME_PT":"Shah Alam","NAME_RU":"Шах-Алам","NAME_ZH":"莎阿南","LABEL":"","NAME_AR":"شاه عالم","NAME_BN":"শাহ আলম","NAME_EL":"Σαχ Αλάμ","NAME_HI":"शाह आलम","NAME_HU":"Shah Alam","NAME_ID":"Shah Alam","NAME_IT":"Shah Alam","NAME_JA":"シャー・アラム","NAME_KO":"샤알람","NAME_NL":"Shah Alam","NAME_PL":"Shah Alam","NAME_SV":"Shah Alam","NAME_TR":"Shah Alam","NAME_VI":"Shah Alam","NE_ID":1159117459,"NAME_FA":"شاه عالم","NAME_HE":"שה אלם","NAME_UK":"Шах-Алам","NAME_UR":"شاہ عالم","NAME_ZHT":"莎阿南","GEONAMESID":1732903,"FCLASS_ISO":"","FCLASS_US":"","FCLASS_FR":"","FCLASS_RU":"","FCLASS_ES":"","FCLASS_CN":"","FCLASS_TW":"","FCLASS_IN":"","FCLASS_NP":"","FCLASS_PK":"","FCLASS_DE":"","FCLASS_GB":"","FCLASS_BR":"","FCLASS_IL":"","FCLASS_PS":"","FCLASS_SA":"","FCLASS_EG":"","FCLASS_MA":"","FCLASS_PT":"","FCLASS_AR":"","FCLASS_JP":"","FCLASS_KO":"","FCLASS_VN":"","FCLASS_TR":"","FCLASS_ID":"","FCLASS_PL":"","FCLASS_GR":"","FCLASS_IT":"","FCLASS_NL":"","FCLASS_SE":"","FCLASS_BD":"","FCLASS_UA":"","FCLASS_TLC":""}},{"type":"Point","coordinates":[101.0314453,4.0118598],"properties":{"SCALERANK":7,"NATSCALE":20,"LABELRANK":6,"FEATURECLA":"Populated place","NAME":"Teluk Intan","NAMEPAR":"","NAMEALT":"","NAMEASCII":"Teluk Intan","ADM0CAP":0,"CAPIN":"","WORLDCITY":0,"MEGACITY":0,"SOV0NAME":"Malaysia","SOV_A3":"MYS","ADM0NAME":"Malaysia","ADM0_A3":"MYS","ADM1NAME":"Perak","ISO_A2":"MY","NOTE":"","LATITUDE":4.01186,"LONGITUDE":101.031445,"POP_MAX":101659,"POP_MIN":63353,"POP_OTHER":102001,"RANK_MAX":9,"RANK_MIN":8,"MEGANAME":"","LS_NAME":"Teluk Intan","MAX_POP10":101659,"MAX_POP20":0,"MAX_POP50":0,"MAX_POP300":0,"MAX_POP310":0,"MAX_NATSCA":10,"MIN_AREAKM":35,"MAX_AREAKM":35,"MIN_AREAMI":13,"MAX_AREAMI":13,"MIN_PERKM":44,"MAX_PERKM":44,"MIN_PERMI":28,"MAX_PERMI":28,"MIN_BBXMIN":100.991667,"MAX_BBXMIN":100.991667,"MIN_BBXMAX":101.075,"MAX_BBXMAX":101.075,"MIN_BBYMIN":3.983333,"MAX_BBYMIN":3.983333,"MIN_BBYMAX":4.041667,"MAX_BBYMAX":4.041667,"MEAN_BBXC":101.02998,"MEAN_BBYC":4.010874,"TIMEZONE":"Asia/Kuala_Lumpur","UN_FID":0,"POP1950":0,"POP1955":0,"POP1960":0,"POP1965":0,"POP1970":0,"POP1975":0,"POP1980":0,"POP1985":0,"POP1990":0,"POP1995":0,"POP2000":0,"POP2005":0,"POP2010":0,"POP2015":0,"POP2020":0,"POP2025":0,"POP2050":0,"MIN_ZOOM":6.7,"WIKIDATAID":"Q1317145","WOF_ID":102023539,"CAPALT":0,"NAME_EN":"Teluk Intan","NAME_DE":"Teluk Intan","NAME_ES":"Teluk Intan","NAME_FR":"Teluk Intan","NAME_PT":"Teluk Intan","NAME_RU":"Телук-Интан","NAME_ZH":"安顺","LABEL":"","NAME_AR":"تيلوك إنتان","NAME_BN":"তেলুক ইন্তান","NAME_EL":"Τέλουκ Ιντάν","NAME_HI":"तेलुक इनतान","NAME_HU":"Teluk Intan","NAME_ID":"Teluk Intan","NAME_IT":"Teluk Intan","NAME_JA":"テロックインタン","NAME_KO":"틀룩인탄","NAME_NL":"Teluk Intan","NAME_PL":"Teluk Intan","NAME_SV":"Teluk Intan","NAME_TR":"Teluk Intan","NAME_VI":"Teluk Intan","NE_ID":1159136507,"NAME_FA":"تلوک اینتان","NAME_HE":"טלוק אינטן","NAME_UK":"Телук-Інтан","NAME_UR":"تیلوک انتان","NAME_ZHT":"安順","GEONAMESID":1735459,"FCLASS_ISO":"","FCLASS_US":"","FCLASS_FR":"","FCLASS_RU":"","FCLASS_ES":"","FCLASS_CN":"","FCLASS_TW":"","FCLASS_IN":"","FCLASS_NP":"","FCLASS_PK":"","FCLASS_DE":"","FCLASS_GB":"","FCLASS_BR":"","FCLASS_IL":"","FCLASS_PS":"","FCLASS_SA":"","FCLASS_EG":"","FCLASS_MA":"","FCLASS_PT":"","FCLASS_AR":"","FCLASS_JP":"","FCLASS_KO":"","FCLASS_VN":"","FCLASS_TR":"","FCLASS_ID":"","FCLASS_PL":"","FCLASS_GR":"","FCLASS_IT":"","FCLASS_NL":"","FCLASS_SE":"","FCLASS_BD":"","FCLASS_UA":"","FCLASS_TLC":""}},{"type":"Point","coordinates":[100.4000109,5.4170711],"properties":{"SCALERANK":7,"NATSCALE":20,"LABELRANK":6,"FEATURECLA":"Populated place","NAME":"Butterworth","NAMEPAR":"","NAMEALT":"","NAMEASCII":"Butterworth","ADM0CAP":0,"CAPIN":"","WORLDCITY":0,"MEGACITY":0,"SOV0NAME":"Malaysia","SOV_A3":"MYS","ADM0NAME":"Malaysia","ADM0_A3":"MYS","ADM1NAME":"Pulau Pinang","ISO_A2":"MY","NOTE":"","LATITUDE":5.417071,"LONGITUDE":100.400011,"POP_MAX":821652,"POP_MIN":107591,"POP_OTHER":817657,"RANK_MAX":11,"RANK_MIN":9,"MEGANAME":"","LS_NAME":"Butterworth","MAX_POP10":821652,"MAX_POP20":0,"MAX_POP50":0,"MAX_POP300":0,"MAX_POP310":0,"MAX_NATSCA":10,"MIN_AREAKM":464,"MAX_AREAKM":464,"MIN_AREAMI":179,"MAX_AREAMI":179,"MIN_PERKM":383,"MAX_PERKM":383,"MIN_PERMI":238,"MAX_PERMI":238,"MIN_BBXMIN":100.358333,"MAX_BBXMIN":100.358333,"MIN_BBXMAX":100.616667,"MAX_BBXMAX":100.616667,"MIN_BBYMIN":5.091667,"MAX_BBYMIN":5.091667,"MIN_BBYMAX":5.557902,"MAX_BBYMAX":5.557902,"MEAN_BBXC":100.469613,"MEAN_BBYC":5.36311,"TIMEZONE":"Asia/Kuala_Lumpur","UN_FID":0,"POP1950":0,"POP1955":0,"POP1960":0,"POP1965":0,"POP1970":0,"POP1975":0,"POP1980":0,"POP1985":0,"POP1990":0,"POP1995":0,"POP2000":0,"POP2005":0,"POP2010":0,"POP2015":0,"POP2020":0,"POP2025":0,"POP2050":0,"MIN_ZOOM":6.7,"WIKIDATAID":"Q1018159","WOF_ID":102023321,"CAPALT":0,"NAME_EN":"Butterworth","NAME_DE":"Butterworth","NAME_ES":"Butterworth","NAME_FR":"Butterworth","NAME_PT":"Butterworth","NAME_RU":"Баттерворт","NAME_ZH":"北海","LABEL":"","NAME_AR":"بتروورث","NAME_BN":"বাটারওর্থ","NAME_EL":"Μπάτεργουορθ","NAME_HI":"बटरवर्थ","NAME_HU":"Butterworth","NAME_ID":"Butterworth","NAME_IT":"Butterworth","NAME_JA":"バターワース","NAME_KO":"버터워스","NAME_NL":"Butterworth","NAME_PL":"Butterworth","NAME_SV":"Butterworth","NAME_TR":"Butterworth","NAME_VI":"Butterworth","NE_ID":1159136511,"NAME_FA":"باتروورت","NAME_HE":"באטרוורת'","NAME_UK":"Баттерворт","NAME_UR":"بوتتیروورتھ","NAME_ZHT":"北海","GEONAMESID":1735076,"FCLASS_ISO":"","FCLASS_US":"","FCLASS_FR":"","FCLASS_RU":"","FCLASS_ES":"","FCLASS_CN":"","FCLASS_TW":"","FCLASS_IN":"","FCLASS_NP":"","FCLASS_PK":"","FCLASS_DE":"","FCLASS_GB":"","FCLASS_BR":"","FCLASS_IL":"","FCLASS_PS":"","FCLASS_SA":"","FCLASS_EG":"","FCLASS_MA":"","FCLASS_PT":"","FCLASS_AR":"","FCLASS_JP":"","FCLASS_KO":"","FCLASS_VN":"","FCLASS_TR":"","FCLASS_ID":"","FCLASS_PL":"","FCLASS_GR":"","FCLASS_IT":"","FCLASS_NL":"","FCLASS_SE":"","FCLASS_BD":"","FCLASS_UA":"","FCLASS_TLC":""}},{"type":"Point","coordinates":[100.4793343,5.6497184],"properties":{"SCALERANK":7,"NATSCALE":20,"LABELRANK":6,"FEATURECLA":"Populated place","NAME":"Sungai Petani","NAMEPAR":"","NAMEALT":"","NAMEASCII":"Sungai Petani","ADM0CAP":0,"CAPIN":"","WORLDCITY":0,"MEGACITY":0,"SOV0NAME":"Malaysia","SOV_A3":"MYS","ADM0NAME":"Malaysia","ADM0_A3":"MYS","ADM1NAME":"Kedah","ISO_A2":"MY","NOTE":"","LATITUDE":5.649718,"LONGITUDE":100.479334,"POP_MAX":358499,"POP_MIN":228843,"POP_OTHER":313679,"RANK_MAX":10,"RANK_MIN":10,"MEGANAME":"","LS_NAME":"Sungai Petani","MAX_POP10":315443,"MAX_POP20":358499,"MAX_POP50":0,"MAX_POP300":0,"MAX_POP310":0,"MAX_NATSCA":20,"MIN_AREAKM":191,"MAX_AREAKM":250,"MIN_AREAMI":74,"MAX_AREAMI":97,"MIN_PERKM":195,"MAX_PERKM":237,"MIN_PERMI":121,"MAX_PERMI":147,"MIN_BBXMIN":100.366667,"MAX_BBXMIN":100.366667,"MIN_BBXMAX":100.591667,"MAX_BBXMAX":100.591667,"MIN_BBYMIN":5.458333,"MAX_BBYMIN":5.529486,"MIN_BBYMAX":5.758333,"MAX_BBYMAX":5.758333,"MEAN_BBXC":100.482637,"MEAN_BBYC":5.614269,"TIMEZONE":"Asia/Kuala_Lumpur","UN_FID":0,"POP1950":0,"POP1955":0,"POP1960":0,"POP1965":0,"POP1970":0,"POP1975":0,"POP1980":0,"POP1985":0,"POP1990":0,"POP1995":0,"POP2000":0,"POP2005":0,"POP2010":0,"POP2015":0,"POP2020":0,"POP2025":0,"POP2050":0,"MIN_ZOOM":6.7,"WIKIDATAID":"Q939738","WOF_ID":102023547,"CAPALT":0,"NAME_EN":"Sungai Petani","NAME_DE":"Sungai Petani","NAME_ES":"Sungai Petani","NAME_FR":"Sungai Petani","NAME_PT":"Sungai Petani","NAME_RU":"Сунгай Петани","NAME_ZH":"双溪大年","LABEL":"","NAME_AR":"سونغاي بيتاني","NAME_BN":"সাঙ্গাই পেটানি","NAME_EL":"Σουνγκάϊ Πετάνι","NAME_HI":"सुंगई पेटानी","NAME_HU":"Sungai Petani","NAME_ID":"Sungai Petani","NAME_IT":"Sungai Petani","NAME_JA":"スンガイ・プタニ","NAME_KO":"숭파이 페타니","NAME_NL":"Sungai Petani","NAME_PL":"Sungai Petani","NAME_SV":"Sungai Petani","NAME_TR":"Sungai Petani","NAME_VI":"Sungai Petani","NE_ID":1159136515,"NAME_FA":"سونگای پتانی","NAME_HE":"סונגאי פטאני","NAME_UK":"Сунгай Петані","NAME_UR":"سنگئی پیتانی","NAME_ZHT":"雙溪大年","GEONAMESID":1735498,"FCLASS_ISO":"","FCLASS_US":"","FCLASS_FR":"","FCLASS_RU":"","FCLASS_ES":"","FCLASS_CN":"","FCLASS_TW":"","FCLASS_IN":"","FCLASS_NP":"","FCLASS_PK":"","FCLASS_DE":"","FCLASS_GB":"","FCLASS_BR":"","FCLASS_IL":"","FCLASS_PS":"","FCLASS_SA":"","FCLASS_EG":"","FCLASS_MA":"","FCLASS_PT":"","FCLASS_AR":"","FCLASS_JP":"","FCLASS_KO":"","FCLASS_VN":"","FCLASS_TR":"","FCLASS_ID":"","FCLASS_PL":"","FCLASS_GR":"","FCLASS_IT":"","FCLASS_NL":"","FCLASS_SE":"","FCLASS_BD":"","FCLASS_UA":"","FCLASS_TLC":""}},{"type":"Point","coordinates":[100.3729325,6.1133077],"properties":{"SCALERANK":7,"NATSCALE":20,"LABELRANK":6,"FEATURECLA":"Admin-1 capital","NAME":"Alor Setar","NAMEPAR":"","NAMEALT":"","NAMEASCII":"Alor Setar","ADM0CAP":0,"CAPIN":"","WORLDCITY":0,"MEGACITY":0,"SOV0NAME":"Malaysia","SOV_A3":"MYS","ADM0NAME":"Malaysia","ADM0_A3":"MYS","ADM1NAME":"Kedah","ISO_A2":"MY","NOTE":"","LATITUDE":6.113308,"LONGITUDE":100.372933,"POP_MAX":336475,"POP_MIN":217368,"POP_OTHER":424164,"RANK_MAX":10,"RANK_MIN":10,"MEGANAME":"","LS_NAME":"Alor Setar","MAX_POP10":335467,"MAX_POP20":336475,"MAX_POP50":0,"MAX_POP300":0,"MAX_POP310":0,"MAX_NATSCA":20,"MIN_AREAKM":233,"MAX_AREAKM":236,"MIN_AREAMI":90,"MAX_AREAMI":91,"MIN_PERKM":223,"MAX_PERKM":234,"MIN_PERMI":139,"MAX_PERMI":145,"MIN_BBXMIN":100.283333,"MAX_BBXMIN":100.283333,"MIN_BBXMAX":100.458333,"MAX_BBXMAX":100.458333,"MIN_BBYMIN":5.983333,"MAX_BBYMIN":6,"MIN_BBYMAX":6.216667,"MAX_BBYMAX":6.216667,"MEAN_BBXC":100.37505,"MEAN_BBYC":6.111902,"TIMEZONE":"Asia/Kuala_Lumpur","UN_FID":0,"POP1950":0,"POP1955":0,"POP1960":0,"POP1965":0,"POP1970":0,"POP1975":0,"POP1980":0,"POP1985":0,"POP1990":0,"POP1995":0,"POP2000":0,"POP2005":0,"POP2010":0,"POP2015":0,"POP2020":0,"POP2025":0,"POP2050":0,"MIN_ZOOM":6.7,"WIKIDATAID":"Q474868","WOF_ID":102023629,"CAPALT":0,"NAME_EN":"Alor Setar","NAME_DE":"Alor Setar","NAME_ES":"Alor Setar","NAME_FR":"Alor Setar","NAME_PT":"Alor Setar","NAME_RU":"Алор-Сетар","NAME_ZH":"亚罗士打","LABEL":"","NAME_AR":"ألور ستار","NAME_BN":"আলোর সেতার","NAME_EL":"Αλόρ Σετάρ","NAME_HI":"अलोर सेतार","NAME_HU":"Alor Setar","NAME_ID":"Alor Setar","NAME_IT":"Alor Setar","NAME_JA":"アロースター","NAME_KO":"알로르스타르","NAME_NL":"Alor Setar","NAME_PL":"Alor Setar","NAME_SV":"Alor Setar","NAME_TR":"Alor Setar","NAME_VI":"Alor Setar","NE_ID":1159136519,"NAME_FA":"الور ستار","NAME_HE":"אלור סטאר","NAME_UK":"Алор-Стар","NAME_UR":"الور سیتار","NAME_ZHT":"亞羅士打","GEONAMESID":1736309,"FCLASS_ISO":"","FCLASS_US":"","FCLASS_FR":"","FCLASS_RU":"","FCLASS_ES":"","FCLASS_CN":"","FCLASS_TW":"","FCLASS_IN":"","FCLASS_NP":"","FCLASS_PK":"","FCLASS_DE":"","FCLASS_GB":"","FCLASS_BR":"","FCLASS_IL":"","FCLASS_PS":"","FCLASS_SA":"","FCLASS_EG":"","FCLASS_MA":"","FCLASS_PT":"","FCLASS_AR":"","FCLASS_JP":"","FCLASS_KO":"","FCLASS_VN":"","FCLASS_TR":"","FCLASS_ID":"","FCLASS_PL":"","FCLASS_GR":"","FCLASS_IT":"","FCLASS_NL":"","FCLASS_SE":"","FCLASS_BD":"","FCLASS_UA":"","FCLASS_TLC":""}},{"type":"Point","coordinates":[102.566597,2.0337376],"properties":{"SCALERANK":7,"NATSCALE":20,"LABELRANK":6,"FEATURECLA":"Populated place","NAME":"Muar","NAMEPAR":"","NAMEALT":"","NAMEASCII":"Muar","ADM0CAP":0,"CAPIN":"","WORLDCITY":0,"MEGACITY":0,"SOV0NAME":"Malaysia","SOV_A3":"MYS","ADM0NAME":"Malaysia","ADM0_A3":"MYS","ADM1NAME":"Johor","ISO_A2":"MY","NOTE":"","LATITUDE":2.033738,"LONGITUDE":102.566597,"POP_MAX":191346,"POP_MIN":127897,"POP_OTHER":201835,"RANK_MAX":9,"RANK_MIN":9,"MEGANAME":"","LS_NAME":"Muar","MAX_POP10":191346,"MAX_POP20":0,"MAX_POP50":0,"MAX_POP300":0,"MAX_POP310":0,"MAX_NATSCA":10,"MIN_AREAKM":76,"MAX_AREAKM":76,"MIN_AREAMI":29,"MAX_AREAMI":29,"MIN_PERKM":111,"MAX_PERKM":111,"MIN_PERMI":69,"MAX_PERMI":69,"MIN_BBXMIN":102.55,"MAX_BBXMIN":102.55,"MIN_BBXMAX":102.683333,"MAX_BBXMAX":102.683333,"MIN_BBYMIN":1.95,"MAX_BBYMIN":1.95,"MIN_BBYMAX":2.125,"MAX_BBYMAX":2.125,"MEAN_BBXC":102.60941,"MEAN_BBYC":2.046489,"TIMEZONE":"Asia/Kuala_Lumpur","UN_FID":0,"POP1950":0,"POP1955":0,"POP1960":0,"POP1965":0,"POP1970":0,"POP1975":0,"POP1980":0,"POP1985":0,"POP1990":0,"POP1995":0,"POP2000":0,"POP2005":0,"POP2010":0,"POP2015":0,"POP2020":0,"POP2025":0,"POP2050":0,"MIN_ZOOM":6.7,"WIKIDATAID":"Q1832744","WOF_ID":102022813,"CAPALT":0,"NAME_EN":"Muar","NAME_DE":"Muar","NAME_ES":"Muar","NAME_FR":"Muar","NAME_PT":"Muar","NAME_RU":"Муар","NAME_ZH":"麻坡","LABEL":"","NAME_AR":"موار","NAME_BN":"মুয়ার","NAME_EL":"Μουάρ","NAME_HI":"मुआर","NAME_HU":"Muar","NAME_ID":"Muar","NAME_IT":"Muar","NAME_JA":"ムアール","NAME_KO":"무아르 타운","NAME_NL":"Bandar Maharani","NAME_PL":"Bandar Maharani","NAME_SV":"Muar","NAME_TR":"Muar","NAME_VI":"Muar","NE_ID":1159136525,"NAME_FA":"موار","NAME_HE":"מואר","NAME_UK":"Муар","NAME_UR":"موار","NAME_ZHT":"麻坡","GEONAMESID":1732869,"FCLASS_ISO":"","FCLASS_US":"","FCLASS_FR":"","FCLASS_RU":"","FCLASS_ES":"","FCLASS_CN":"","FCLASS_TW":"","FCLASS_IN":"","FCLASS_NP":"","FCLASS_PK":"","FCLASS_DE":"","FCLASS_GB":"","FCLASS_BR":"","FCLASS_IL":"","FCLASS_PS":"","FCLASS_SA":"","FCLASS_EG":"","FCLASS_MA":"","FCLASS_PT":"","FCLASS_AR":"","FCLASS_JP":"","FCLASS_KO":"","FCLASS_VN":"","FCLASS_TR":"","FCLASS_ID":"","FCLASS_PL":"","FCLASS_GR":"","FCLASS_IT":"","FCLASS_NL":"","FCLASS_SE":"","FCLASS_BD":"","FCLASS_UA":"","FCLASS_TLC":""}},{"type":"Point","coordinates":[102.9333447,1.8503638],"properties":{"SCALERANK":7,"NATSCALE":20,"LABELRANK":6,"FEATURECLA":"Populated place","NAME":"Batu Pahat","NAMEPAR":"","NAMEALT":"","NAMEASCII":"Batu Pahat","ADM0CAP":0,"CAPIN":"","WORLDCITY":0,"MEGACITY":0,"SOV0NAME":"Malaysia","SOV_A3":"MYS","ADM0NAME":"Malaysia","ADM0_A3":"MYS","ADM1NAME":"Johor","ISO_A2":"MY","NOTE":"","LATITUDE":1.850364,"LONGITUDE":102.933345,"POP_MAX":199619,"POP_MIN":156236,"POP_OTHER":199787,"RANK_MAX":9,"RANK_MIN":9,"MEGANAME":"","LS_NAME":"Batu Pahat","MAX_POP10":199619,"MAX_POP20":0,"MAX_POP50":0,"MAX_POP300":0,"MAX_POP310":0,"MAX_NATSCA":10,"MIN_AREAKM":44,"MAX_AREAKM":44,"MIN_AREAMI":17,"MAX_AREAMI":17,"MIN_PERKM":54,"MAX_PERKM":54,"MIN_PERMI":33,"MAX_PERMI":33,"MIN_BBXMIN":102.883333,"MAX_BBXMIN":102.883333,"MIN_BBXMAX":103.016667,"MAX_BBXMAX":103.016667,"MIN_BBYMIN":1.816667,"MAX_BBYMIN":1.816667,"MIN_BBYMAX":1.9,"MAX_BBYMAX":1.9,"MEAN_BBXC":102.946795,"MEAN_BBYC":1.861058,"TIMEZONE":"Asia/Kuala_Lumpur","UN_FID":0,"POP1950":0,"POP1955":0,"POP1960":0,"POP1965":0,"POP1970":0,"POP1975":0,"POP1980":0,"POP1985":0,"POP1990":0,"POP1995":0,"POP2000":0,"POP2005":0,"POP2010":0,"POP2015":0,"POP2020":0,"POP2025":0,"POP2050":0,"MIN_ZOOM":6.7,"WIKIDATAID":"Q2306850","WOF_ID":102022741,"CAPALT":0,"NAME_EN":"Batu Pahat","NAME_DE":"Batu Pahat","NAME_ES":"Batu Pahat","NAME_FR":"Batu Pahat","NAME_PT":"Batu Pahat","NAME_RU":"Бату-Пахат","NAME_ZH":"峇株巴辖","LABEL":"","NAME_AR":"باتو باهات","NAME_BN":"বাতু পাহাত","NAME_EL":"Μπατού Παχάτ","NAME_HI":"बाटू पहत","NAME_HU":"Batu Pahat","NAME_ID":"Distrik Batu Pahat","NAME_IT":"Batu Pahat","NAME_JA":"バトゥ・パハッ","NAME_KO":"바투 파핫","NAME_NL":"Batu Pahat","NAME_PL":"Batu Pahat","NAME_SV":"Batu Pahat","NAME_TR":"Batu Pahat","NAME_VI":"Batu Pahat","NE_ID":1159136529,"NAME_FA":"باتو پاهات","NAME_HE":"באטו פאהט","NAME_UK":"Бату-Пагат","NAME_UR":"باتو پاہت","NAME_ZHT":"峇株巴轄","GEONAMESID":1732687,"FCLASS_ISO":"","FCLASS_US":"","FCLASS_FR":"","FCLASS_RU":"","FCLASS_ES":"","FCLASS_CN":"","FCLASS_TW":"","FCLASS_IN":"","FCLASS_NP":"","FCLASS_PK":"","FCLASS_DE":"","FCLASS_GB":"","FCLASS_BR":"","FCLASS_IL":"","FCLASS_PS":"","FCLASS_SA":"","FCLASS_EG":"","FCLASS_MA":"","FCLASS_PT":"","FCLASS_AR":"","FCLASS_JP":"","FCLASS_KO":"","FCLASS_VN":"","FCLASS_TR":"","FCLASS_ID":"","FCLASS_PL":"","FCLASS_GR":"","FCLASS_IT":"","FCLASS_NL":"","FCLASS_SE":"","FCLASS_BD":"","FCLASS_UA":"","FCLASS_TLC":""}},{"type":"Point","coordinates":[103.317869,2.038311],"properties":{"SCALERANK":7,"NATSCALE":20,"LABELRANK":6,"FEATURECLA":"Populated place","NAME":"Keluang","NAMEPAR":"","NAMEALT":"","NAMEASCII":"Keluang","ADM0CAP":0,"CAPIN":"","WORLDCITY":0,"MEGACITY":0,"SOV0NAME":"Malaysia","SOV_A3":"MYS","ADM0NAME":"Malaysia","ADM0_A3":"MYS","ADM1NAME":"Johor","ISO_A2":"MY","NOTE":"","LATITUDE":2.038311,"LONGITUDE":103.317869,"POP_MAX":169828,"POP_MIN":156700,"POP_OTHER":156864,"RANK_MAX":9,"RANK_MIN":9,"MEGANAME":"","LS_NAME":"Keluang","MAX_POP10":156700,"MAX_POP20":0,"MAX_POP50":0,"MAX_POP300":0,"MAX_POP310":0,"MAX_NATSCA":10,"MIN_AREAKM":44,"MAX_AREAKM":44,"MIN_AREAMI":17,"MAX_AREAMI":17,"MIN_PERKM":61,"MAX_PERKM":61,"MIN_PERMI":38,"MAX_PERMI":38,"MIN_BBXMIN":103.283333,"MAX_BBXMIN":103.283333,"MIN_BBXMAX":103.408333,"MAX_BBXMAX":103.408333,"MIN_BBYMIN":1.991667,"MAX_BBYMIN":1.991667,"MIN_BBYMAX":2.108333,"MAX_BBYMAX":2.108333,"MEAN_BBXC":103.336859,"MEAN_BBYC":2.041506,"TIMEZONE":"Asia/Kuala_Lumpur","UN_FID":0,"POP1950":0,"POP1955":0,"POP1960":0,"POP1965":0,"POP1970":0,"POP1975":0,"POP1980":0,"POP1985":0,"POP1990":0,"POP1995":0,"POP2000":0,"POP2005":0,"POP2010":0,"POP2015":0,"POP2020":0,"POP2025":0,"POP2050":0,"MIN_ZOOM":6.7,"WIKIDATAID":"Q1200738","WOF_ID":102022791,"CAPALT":0,"NAME_EN":"Kluang","NAME_DE":"Kluang","NAME_ES":"Kluang","NAME_FR":"Kluang","NAME_PT":"Kluang","NAME_RU":"Клуанг","NAME_ZH":"居銮","LABEL":"","NAME_AR":"كولانغ","NAME_BN":"ক্লুয়াং","NAME_EL":"Κλουάνγκ","NAME_HI":"क्लुआंग","NAME_HU":"Keluang","NAME_ID":"Kluang","NAME_IT":"Kluang","NAME_JA":"クルアン","NAME_KO":"클루앙","NAME_NL":"Kluang","NAME_PL":"Kluang","NAME_SV":"Kluang","NAME_TR":"Kluang","NAME_VI":"Kluang","NE_ID":1159136533,"NAME_FA":"کلوانگ","NAME_HE":"קלואנג","NAME_UK":"Клуанг","NAME_UR":"کلوانج","NAME_ZHT":"居鑾","GEONAMESID":1732811,"FCLASS_ISO":"","FCLASS_US":"","FCLASS_FR":"","FCLASS_RU":"","FCLASS_ES":"","FCLASS_CN":"","FCLASS_TW":"","FCLASS_IN":"","FCLASS_NP":"","FCLASS_PK":"","FCLASS_DE":"","FCLASS_GB":"","FCLASS_BR":"","FCLASS_IL":"","FCLASS_PS":"","FCLASS_SA":"","FCLASS_EG":"","FCLASS_MA":"","FCLASS_PT":"","FCLASS_AR":"","FCLASS_JP":"","FCLASS_KO":"","FCLASS_VN":"","FCLASS_TR":"","FCLASS_ID":"","FCLASS_PL":"","FCLASS_GR":"","FCLASS_IT":"","FCLASS_NL":"","FCLASS_SE":"","FCLASS_BD":"","FCLASS_UA":"","FCLASS_TLC":""}},{"type":"Point","coordinates":[101.9400203,2.7104922],"properties":{"SCALERANK":7,"NATSCALE":20,"LABELRANK":6,"FEATURECLA":"Admin-1 capital","NAME":"Seremban","NAMEPAR":"","NAMEALT":"","NAMEASCII":"Seremban","ADM0CAP":0,"CAPIN":"","WORLDCITY":0,"MEGACITY":0,"SOV0NAME":"Malaysia","SOV_A3":"MYS","ADM0NAME":"Malaysia","ADM0_A3":"MYS","ADM1NAME":"Negeri Sembilan","ISO_A2":"MY","NOTE":"","LATITUDE":2.710492,"LONGITUDE":101.94002,"POP_MAX":372917,"POP_MIN":300731,"POP_OTHER":322700,"RANK_MAX":10,"RANK_MIN":10,"MEGANAME":"","LS_NAME":"Seremban","MAX_POP10":300731,"MAX_POP20":0,"MAX_POP50":0,"MAX_POP300":0,"MAX_POP310":0,"MAX_NATSCA":10,"MIN_AREAKM":124,"MAX_AREAKM":124,"MIN_AREAMI":48,"MAX_AREAMI":48,"MIN_PERKM":118,"MAX_PERKM":118,"MIN_PERMI":74,"MAX_PERMI":74,"MIN_BBXMIN":101.841667,"MAX_BBXMIN":101.841667,"MIN_BBXMAX":102.025,"MAX_BBXMAX":102.025,"MIN_BBYMIN":2.641667,"MAX_BBYMIN":2.641667,"MIN_BBYMAX":2.766667,"MAX_BBYMAX":2.766667,"MEAN_BBXC":101.944224,"MEAN_BBYC":2.709856,"TIMEZONE":"Asia/Kuala_Lumpur","UN_FID":0,"POP1950":0,"POP1955":0,"POP1960":0,"POP1965":0,"POP1970":0,"POP1975":0,"POP1980":0,"POP1985":0,"POP1990":0,"POP1995":0,"POP2000":0,"POP2005":0,"POP2010":0,"POP2015":0,"POP2020":0,"POP2025":0,"POP2050":0,"MIN_ZOOM":6.7,"WIKIDATAID":"Q847610","WOF_ID":102023155,"CAPALT":0,"NAME_EN":"Seremban","NAME_DE":"Seremban","NAME_ES":"Seremban","NAME_FR":"Seremban","NAME_PT":"Seremban","NAME_RU":"Серембан","NAME_ZH":"芙蓉","LABEL":"","NAME_AR":"سرمبن","NAME_BN":"সেরেম্বান","NAME_EL":"Σέρεμπαν","NAME_HI":"सेरेम्बन","NAME_HU":"Seremban","NAME_ID":"Seremban","NAME_IT":"Seremban","NAME_JA":"スレンバン","NAME_KO":"스름반","NAME_NL":"Seremban","NAME_PL":"Seremban","NAME_SV":"Seremban","NAME_TR":"Seremban","NAME_VI":"Seremban","NE_ID":1159136537,"NAME_FA":"سرمبان","NAME_HE":"סרמבן","NAME_UK":"Серембан","NAME_UR":"سرمبان","NAME_ZHT":"芙蓉","GEONAMESID":1734810,"FCLASS_ISO":"","FCLASS_US":"","FCLASS_FR":"","FCLASS_RU":"","FCLASS_ES":"","FCLASS_CN":"","FCLASS_TW":"","FCLASS_IN":"","FCLASS_NP":"","FCLASS_PK":"","FCLASS_DE":"","FCLASS_GB":"","FCLASS_BR":"","FCLASS_IL":"","FCLASS_PS":"","FCLASS_SA":"","FCLASS_EG":"","FCLASS_MA":"","FCLASS_PT":"","FCLASS_AR":"","FCLASS_JP":"","FCLASS_KO":"","FCLASS_VN":"","FCLASS_TR":"","FCLASS_ID":"","FCLASS_PL":"","FCLASS_GR":"","FCLASS_IT":"","FCLASS_NL":"","FCLASS_SE":"","FCLASS_BD":"","FCLASS_UA":"","FCLASS_TLC":""}},{"type":"Point","coordinates":[101.8423002,3.7927],"properties":{"SCALERANK":7,"NATSCALE":20,"LABELRANK":6,"FEATURECLA":"Populated place","NAME":"Raub","NAMEPAR":"","NAMEALT":"","NAMEASCII":"Raub","ADM0CAP":0,"CAPIN":"","WORLDCITY":0,"MEGACITY":0,"SOV0NAME":"Malaysia","SOV_A3":"MYS","ADM0NAME":"Malaysia","ADM0_A3":"MYS","ADM1NAME":"Pahang","ISO_A2":"MY","NOTE":"","LATITUDE":3.7927,"LONGITUDE":101.8423,"POP_MAX":40024,"POP_MIN":33521,"POP_OTHER":33686,"RANK_MAX":7,"RANK_MIN":7,"MEGANAME":"","LS_NAME":"Raub","MAX_POP10":33521,"MAX_POP20":33521,"MAX_POP50":0,"MAX_POP300":0,"MAX_POP310":0,"MAX_NATSCA":20,"MIN_AREAKM":18,"MAX_AREAKM":18,"MIN_AREAMI":7,"MAX_AREAMI":7,"MIN_PERKM":24,"MAX_PERKM":24,"MIN_PERMI":15,"MAX_PERMI":15,"MIN_BBXMIN":101.841667,"MAX_BBXMIN":101.841667,"MIN_BBXMAX":101.891667,"MAX_BBXMAX":101.891667,"MIN_BBYMIN":3.783333,"MAX_BBYMIN":3.783333,"MIN_BBYMAX":3.833333,"MAX_BBYMAX":3.833333,"MEAN_BBXC":101.860913,"MEAN_BBYC":3.802976,"TIMEZONE":"Asia/Kuala_Lumpur","UN_FID":0,"POP1950":0,"POP1955":0,"POP1960":0,"POP1965":0,"POP1970":0,"POP1975":0,"POP1980":0,"POP1985":0,"POP1990":0,"POP1995":0,"POP2000":0,"POP2005":0,"POP2010":0,"POP2015":0,"POP2020":0,"POP2025":0,"POP2050":0,"MIN_ZOOM":6.7,"WIKIDATAID":"Q2352205","WOF_ID":102022723,"CAPALT":0,"NAME_EN":"Raub","NAME_DE":"Raub","NAME_ES":"Raub","NAME_FR":"Raub","NAME_PT":"Raub","NAME_RU":"Рауб","NAME_ZH":"劳勿","LABEL":"","NAME_AR":"راوب","NAME_BN":"রোউব","NAME_EL":"Ραούμπ","NAME_HI":"राउब","NAME_HU":"Raub","NAME_ID":"Raub","NAME_IT":"Raub","NAME_JA":"ラウブ","NAME_KO":"라우브","NAME_NL":"Raub","NAME_PL":"Raub","NAME_SV":"Raub","NAME_TR":"Raub","NAME_VI":"Raub","NE_ID":1159136543,"NAME_FA":"رواب","NAME_HE":"ראוב","NAME_UK":"Рауб","NAME_UR":"راؤب","NAME_ZHT":"勞勿","GEONAMESID":1732663,"FCLASS_ISO":"","FCLASS_US":"","FCLASS_FR":"","FCLASS_RU":"","FCLASS_ES":"","FCLASS_CN":"","FCLASS_TW":"","FCLASS_IN":"","FCLASS_NP":"","FCLASS_PK":"","FCLASS_DE":"","FCLASS_GB":"","FCLASS_BR":"","FCLASS_IL":"","FCLASS_PS":"","FCLASS_SA":"","FCLASS_EG":"","FCLASS_MA":"","FCLASS_PT":"","FCLASS_AR":"","FCLASS_JP":"","FCLASS_KO":"","FCLASS_VN":"","FCLASS_TR":"","FCLASS_ID":"","FCLASS_PL":"","FCLASS_GR":"","FCLASS_IT":"","FCLASS_NL":"","FCLASS_SE":"","FCLASS_BD":"","FCLASS_UA":"","FCLASS_TLC":""}},{"type":"Point","coordinates":[103.4478869,4.2332416],"properties":{"SCALERANK":7,"NATSCALE":20,"LABELRANK":6,"FEATURECLA":"Populated place","NAME":"Chukai","NAMEPAR":"","NAMEALT":"","NAMEASCII":"Chukai","ADM0CAP":0,"CAPIN":"","WORLDCITY":0,"MEGACITY":0,"SOV0NAME":"Malaysia","SOV_A3":"MYS","ADM0NAME":"Malaysia","ADM0_A3":"MYS","ADM1NAME":"Trengganu","ISO_A2":"MY","NOTE":"","LATITUDE":4.233242,"LONGITUDE":103.447887,"POP_MAX":82425,"POP_MIN":44646,"POP_OTHER":0,"RANK_MAX":8,"RANK_MIN":7,"MEGANAME":"","LS_NAME":"Chukai","MAX_POP10":44646,"MAX_POP20":44646,"MAX_POP50":0,"MAX_POP300":0,"MAX_POP310":0,"MAX_NATSCA":20,"MIN_AREAKM":38,"MAX_AREAKM":38,"MIN_AREAMI":14,"MAX_AREAMI":14,"MIN_PERKM":52,"MAX_PERKM":52,"MIN_PERMI":32,"MAX_PERMI":32,"MIN_BBXMIN":103.391667,"MAX_BBXMIN":103.391667,"MIN_BBXMAX":103.475,"MAX_BBXMAX":103.475,"MIN_BBYMIN":4.2,"MAX_BBYMIN":4.2,"MIN_BBYMAX":4.291667,"MAX_BBYMAX":4.291667,"MEAN_BBXC":103.438258,"MEAN_BBYC":4.245455,"TIMEZONE":"Asia/Kuala_Lumpur","UN_FID":0,"POP1950":0,"POP1955":0,"POP1960":0,"POP1965":0,"POP1970":0,"POP1975":0,"POP1980":0,"POP1985":0,"POP1990":0,"POP1995":0,"POP2000":0,"POP2005":0,"POP2010":0,"POP2015":0,"POP2020":0,"POP2025":0,"POP2050":0,"MIN_ZOOM":6.7,"WIKIDATAID":"Q2546441","WOF_ID":102022845,"CAPALT":0,"NAME_EN":"Chukai","NAME_DE":"Chukai","NAME_ES":"Chukai","NAME_FR":"Chukai","NAME_PT":"Chukai","NAME_RU":"Чукай","NAME_ZH":"朱盖","LABEL":"","NAME_AR":"ريف تشيوكاي","NAME_BN":"চুকেই","NAME_EL":"Τσουκάι","NAME_HI":"चुकाई","NAME_HU":"Chukai","NAME_ID":"Chukai","NAME_IT":"Chukai","NAME_JA":"チュカイ","NAME_KO":"추카이","NAME_NL":"Chukai","NAME_PL":"Kemaman","NAME_SV":"Chukai","NAME_TR":"Chukai","NAME_VI":"Chukai","NE_ID":1159136547,"NAME_FA":"چوکای","NAME_HE":"צ'וקאי","NAME_UK":"Чукай","NAME_UR":"چکائی","NAME_ZHT":"朱蓋","GEONAMESID":1732945,"FCLASS_ISO":"","FCLASS_US":"","FCLASS_FR":"","FCLASS_RU":"","FCLASS_ES":"","FCLASS_CN":"","FCLASS_TW":"","FCLASS_IN":"","FCLASS_NP":"","FCLASS_PK":"","FCLASS_DE":"","FCLASS_GB":"","FCLASS_BR":"","FCLASS_IL":"","FCLASS_PS":"","FCLASS_SA":"","FCLASS_EG":"","FCLASS_MA":"","FCLASS_PT":"","FCLASS_AR":"","FCLASS_JP":"","FCLASS_KO":"","FCLASS_VN":"","FCLASS_TR":"","FCLASS_ID":"","FCLASS_PL":"","FCLASS_GR":"","FCLASS_IT":"","FCLASS_NL":"","FCLASS_SE":"","FCLASS_BD":"","FCLASS_UA":"","FCLASS_TLC":""}},{"type":"Point","coordinates":[103.12,5.3304098],"properties":{"SCALERANK":7,"NATSCALE":20,"LABELRANK":6,"FEATURECLA":"Admin-1 capital","NAME":"Kuala Terengganu","NAMEPAR":"","NAMEALT":"","NAMEASCII":"Kuala Terengganu","ADM0CAP":0,"CAPIN":"","WORLDCITY":0,"MEGACITY":0,"SOV0NAME":"Malaysia","SOV_A3":"MYS","ADM0NAME":"Malaysia","ADM0_A3":"MYS","ADM1NAME":"Trengganu","ISO_A2":"MY","NOTE":"","LATITUDE":5.33041,"LONGITUDE":103.12,"POP_MAX":350210,"POP_MIN":285065,"POP_OTHER":0,"RANK_MAX":10,"RANK_MIN":10,"MEGANAME":"","LS_NAME":"Kuala Terengganu","MAX_POP10":350210,"MAX_POP20":350210,"MAX_POP50":0,"MAX_POP300":0,"MAX_POP310":0,"MAX_NATSCA":20,"MIN_AREAKM":131,"MAX_AREAKM":131,"MIN_AREAMI":51,"MAX_AREAMI":51,"MIN_PERKM":159,"MAX_PERKM":159,"MIN_PERMI":99,"MAX_PERMI":99,"MIN_BBXMIN":103.05,"MAX_BBXMIN":103.05,"MIN_BBXMAX":103.233333,"MAX_BBXMAX":103.233333,"MIN_BBYMIN":5.15,"MAX_BBYMIN":5.15,"MIN_BBYMAX":5.433333,"MAX_BBYMAX":5.433333,"MEAN_BBXC":103.127976,"MEAN_BBYC":5.308063,"TIMEZONE":"Asia/Kuala_Lumpur","UN_FID":0,"POP1950":0,"POP1955":0,"POP1960":0,"POP1965":0,"POP1970":0,"POP1975":0,"POP1980":0,"POP1985":0,"POP1990":0,"POP1995":0,"POP2000":0,"POP2005":0,"POP2010":0,"POP2015":0,"POP2020":0,"POP2025":0,"POP2050":0,"MIN_ZOOM":6.7,"WIKIDATAID":"Q846502","WOF_ID":102023027,"CAPALT":0,"NAME_EN":"Kuala Terengganu","NAME_DE":"Kuala Terengganu","NAME_ES":"Kuala Terengganu","NAME_FR":"Kuala Terengganu","NAME_PT":"Kuala Terenggan","NAME_RU":"Куала-Тренгану","NAME_ZH":"瓜拉登嘉楼","LABEL":"","NAME_AR":"كوالا ترينغانو","NAME_BN":"কুয়ালা তেরেঙ্গানা","NAME_EL":"Κουάλα Τερενγκάνου","NAME_HI":"कुआला तेरेंगानू","NAME_HU":"Kuala Terengganu","NAME_ID":"Kuala Terengganu","NAME_IT":"Kuala Terengganu","NAME_JA":"クアラトレンガヌ","NAME_KO":"쿠알라트렝가누","NAME_NL":"Kuala Terengganu","NAME_PL":"Kuala Terengganu","NAME_SV":"Kuala Terengganu","NAME_TR":"Kuala Terengganu","NAME_VI":"Kuala Terengganu","NE_ID":1159136553,"NAME_FA":"کوالا ترنگگانو","NAME_HE":"קואלה טרנגנו","NAME_UK":"Куала-Тренггану","NAME_UR":"کوالا تیرنگانو","NAME_ZHT":"瓜拉登嘉樓","GEONAMESID":1734705,"FCLASS_ISO":"","FCLASS_US":"","FCLASS_FR":"","FCLASS_RU":"","FCLASS_ES":"","FCLASS_CN":"","FCLASS_TW":"","FCLASS_IN":"","FCLASS_NP":"","FCLASS_PK":"","FCLASS_DE":"","FCLASS_GB":"","FCLASS_BR":"","FCLASS_IL":"","FCLASS_PS":"","FCLASS_SA":"","FCLASS_EG":"","FCLASS_MA":"","FCLASS_PT":"","FCLASS_AR":"","FCLASS_JP":"","FCLASS_KO":"","FCLASS_VN":"","FCLASS_TR":"","FCLASS_ID":"","FCLASS_PL":"","FCLASS_GR":"","FCLASS_IT":"","FCLASS_NL":"","FCLASS_SE":"","FCLASS_BD":"","FCLASS_UA":"","FCLASS_TLC":""}},{"type":"Point","coordinates":[118.3359704,5.0463961],"properties":{"SCALERANK":7,"NATSCALE":20,"LABELRANK":6,"FEATURECLA":"Populated place","NAME":"Lahad Datu","NAMEPAR":"","NAMEALT":"","NAMEASCII":"Lahad Datu","ADM0CAP":0,"CAPIN":"","WORLDCITY":0,"MEGACITY":0,"SOV0NAME":"Malaysia","SOV_A3":"MYS","ADM0NAME":"Malaysia","ADM0_A3":"MYS","ADM1NAME":"Sabah","ISO_A2":"MY","NOTE":"","LATITUDE":5.046396,"LONGITUDE":118.33597,"POP_MAX":105622,"POP_MIN":60310,"POP_OTHER":60310,"RANK_MAX":9,"RANK_MIN":8,"MEGANAME":"","LS_NAME":"Lahad Datu","MAX_POP10":60310,"MAX_POP20":0,"MAX_POP50":0,"MAX_POP300":0,"MAX_POP310":0,"MAX_NATSCA":10,"MIN_AREAKM":25,"MAX_AREAKM":25,"MIN_AREAMI":10,"MAX_AREAMI":10,"MIN_PERKM":39,"MAX_PERKM":39,"MIN_PERMI":24,"MAX_PERMI":24,"MIN_BBXMIN":118.283333,"MAX_BBXMIN":118.283333,"MIN_BBXMAX":118.366667,"MAX_BBXMAX":118.366667,"MIN_BBYMIN":5.008333,"MAX_BBYMIN":5.008333,"MIN_BBYMAX":5.058333,"MAX_BBYMAX":5.058333,"MEAN_BBXC":118.326293,"MEAN_BBYC":5.031753,"TIMEZONE":"Asia/Kuching","UN_FID":0,"POP1950":0,"POP1955":0,"POP1960":0,"POP1965":0,"POP1970":0,"POP1975":0,"POP1980":0,"POP1985":0,"POP1990":0,"POP1995":0,"POP2000":0,"POP2005":0,"POP2010":0,"POP2015":0,"POP2020":0,"POP2025":0,"POP2050":0,"MIN_ZOOM":6.7,"WIKIDATAID":"Q1018501","WOF_ID":102022915,"CAPALT":0,"NAME_EN":"Lahad Datu","NAME_DE":"Lahad Datu","NAME_ES":"Lahad Datu","NAME_FR":"Lahad Datu","NAME_PT":"Lahad Datu","NAME_RU":"Лахад-Дату","NAME_ZH":"拿笃","LABEL":"","NAME_AR":"لهداتو","NAME_BN":"লাহাদ দাতু","NAME_EL":"Λαχάντ Ντάτου","NAME_HI":"लहाद दातु","NAME_HU":"Lahad Datu","NAME_ID":"Lahad Datu","NAME_IT":"Lahad Datu","NAME_JA":"ラハダトゥ","NAME_KO":"라하드 다투","NAME_NL":"Lahad Datu","NAME_PL":"Lahad Datu","NAME_SV":"Lahad Datu","NAME_TR":"Lahad Datu","NAME_VI":"Lahad Datu","NE_ID":1159136557,"NAME_FA":"لاهاد داتو","NAME_HE":"להד דאתו","NAME_UK":"Лахад-Дату","NAME_UR":"لاحد داتو","NAME_ZHT":"拿篤","GEONAMESID":1733953,"FCLASS_ISO":"","FCLASS_US":"","FCLASS_FR":"","FCLASS_RU":"","FCLASS_ES":"","FCLASS_CN":"","FCLASS_TW":"","FCLASS_IN":"","FCLASS_NP":"","FCLASS_PK":"","FCLASS_DE":"","FCLASS_GB":"","FCLASS_BR":"","FCLASS_IL":"","FCLASS_PS":"","FCLASS_SA":"","FCLASS_EG":"","FCLASS_MA":"","FCLASS_PT":"","FCLASS_AR":"","FCLASS_JP":"","FCLASS_KO":"","FCLASS_VN":"","FCLASS_TR":"","FCLASS_ID":"","FCLASS_PL":"","FCLASS_GR":"","FCLASS_IT":"","FCLASS_NL":"","FCLASS_SE":"","FCLASS_BD":"","FCLASS_UA":"","FCLASS_TLC":""}},{"type":"Point","coordinates":[113.0359838,3.1664075],"properties":{"SCALERANK":7,"NATSCALE":20,"LABELRANK":6,"FEATURECLA":"Populated place","NAME":"Bintulu","NAMEPAR":"","NAMEALT":"","NAMEASCII":"Bintulu","ADM0CAP":0,"CAPIN":"","WORLDCITY":0,"MEGACITY":0,"SOV0NAME":"Malaysia","SOV_A3":"MYS","ADM0NAME":"Malaysia","ADM0_A3":"MYS","ADM1NAME":"Sarawak","ISO_A2":"MY","NOTE":"","LATITUDE":3.166408,"LONGITUDE":113.035984,"POP_MAX":151617,"POP_MIN":83670,"POP_OTHER":83841,"RANK_MAX":9,"RANK_MIN":8,"MEGANAME":"","LS_NAME":"Bintulu","MAX_POP10":83670,"MAX_POP20":83670,"MAX_POP50":0,"MAX_POP300":0,"MAX_POP310":0,"MAX_NATSCA":20,"MIN_AREAKM":44,"MAX_AREAKM":44,"MIN_AREAMI":17,"MAX_AREAMI":17,"MIN_PERKM":46,"MAX_PERKM":46,"MIN_PERMI":29,"MAX_PERMI":29,"MIN_BBXMIN":113.025,"MAX_BBXMIN":113.025,"MIN_BBXMAX":113.116667,"MAX_BBXMAX":113.116667,"MIN_BBYMIN":3.141667,"MAX_BBYMIN":3.141667,"MIN_BBYMAX":3.208333,"MAX_BBYMAX":3.208333,"MEAN_BBXC":113.067402,"MEAN_BBYC":3.176225,"TIMEZONE":"Asia/Kuching","UN_FID":0,"POP1950":0,"POP1955":0,"POP1960":0,"POP1965":0,"POP1970":0,"POP1975":0,"POP1980":0,"POP1985":0,"POP1990":0,"POP1995":0,"POP2000":0,"POP2005":0,"POP2010":0,"POP2015":0,"POP2020":0,"POP2025":0,"POP2050":0,"MIN_ZOOM":6.1,"WIKIDATAID":"Q594209","WOF_ID":102023751,"CAPALT":0,"NAME_EN":"Bintulu","NAME_DE":"Bintulu","NAME_ES":"Bintulu","NAME_FR":"Bintulu","NAME_PT":"Bintulu","NAME_RU":"Бинтулу","NAME_ZH":"民都鲁","LABEL":"","NAME_AR":"بينتولو","NAME_BN":"বিন্তোলু","NAME_EL":"Μπίντουλου","NAME_HI":"बिंटुलु","NAME_HU":"Bintulu","NAME_ID":"Bintulu","NAME_IT":"Bintulu","NAME_JA":"ビントゥル","NAME_KO":"빈툴루","NAME_NL":"Bintulu","NAME_PL":"Bintulu","NAME_SV":"Bintulu","NAME_TR":"Bintulu","NAME_VI":"Bintulu","NE_ID":1159136563,"NAME_FA":"بینتولو","NAME_HE":"בינטולו","NAME_UK":"Бінтулу","NAME_UR":"بینتولو","NAME_ZHT":"民都魯縣","GEONAMESID":1737486,"FCLASS_ISO":"","FCLASS_US":"","FCLASS_FR":"","FCLASS_RU":"","FCLASS_ES":"","FCLASS_CN":"","FCLASS_TW":"","FCLASS_IN":"","FCLASS_NP":"","FCLASS_PK":"","FCLASS_DE":"","FCLASS_GB":"","FCLASS_BR":"","FCLASS_IL":"","FCLASS_PS":"","FCLASS_SA":"","FCLASS_EG":"","FCLASS_MA":"","FCLASS_PT":"","FCLASS_AR":"","FCLASS_JP":"","FCLASS_KO":"","FCLASS_VN":"","FCLASS_TR":"","FCLASS_ID":"","FCLASS_PL":"","FCLASS_GR":"","FCLASS_IT":"","FCLASS_NL":"","FCLASS_SE":"","FCLASS_BD":"","FCLASS_UA":"","FCLASS_TLC":""}},{"type":"Point","coordinates":[113.9845048,4.3999239],"properties":{"SCALERANK":7,"NATSCALE":20,"LABELRANK":6,"FEATURECLA":"Populated place","NAME":"Miri","NAMEPAR":"","NAMEALT":"","NAMEASCII":"Miri","ADM0CAP":0,"CAPIN":"","WORLDCITY":0,"MEGACITY":0,"SOV0NAME":"Malaysia","SOV_A3":"MYS","ADM0NAME":"Malaysia","ADM0_A3":"MYS","ADM1NAME":"Sarawak","ISO_A2":"MY","NOTE":"","LATITUDE":4.399924,"LONGITUDE":113.984505,"POP_MAX":228212,"POP_MIN":211703,"POP_OTHER":211703,"RANK_MAX":10,"RANK_MIN":10,"MEGANAME":"","LS_NAME":"Miri","MAX_POP10":211703,"MAX_POP20":211703,"MAX_POP50":0,"MAX_POP300":0,"MAX_POP310":0,"MAX_NATSCA":20,"MIN_AREAKM":70,"MAX_AREAKM":70,"MIN_AREAMI":27,"MAX_AREAMI":27,"MIN_PERKM":76,"MAX_PERKM":76,"MIN_PERMI":47,"MAX_PERMI":47,"MIN_BBXMIN":113.966667,"MAX_BBXMIN":113.966667,"MIN_BBXMAX":114.033333,"MAX_BBXMAX":114.033333,"MIN_BBYMIN":4.308333,"MAX_BBYMIN":4.308333,"MIN_BBYMAX":4.508333,"MAX_BBYMAX":4.508333,"MEAN_BBXC":113.998984,"MEAN_BBYC":4.405183,"TIMEZONE":"Asia/Kuching","UN_FID":0,"POP1950":0,"POP1955":0,"POP1960":0,"POP1965":0,"POP1970":0,"POP1975":0,"POP1980":0,"POP1985":0,"POP1990":0,"POP1995":0,"POP2000":0,"POP2005":0,"POP2010":0,"POP2015":0,"POP2020":0,"POP2025":0,"POP2050":0,"MIN_ZOOM":6.7,"WIKIDATAID":"Q986803","WOF_ID":102023773,"CAPALT":0,"NAME_EN":"Miri","NAME_DE":"Miri","NAME_ES":"Miri","NAME_FR":"Miri","NAME_PT":"Miri","NAME_RU":"Мири","NAME_ZH":"美里","LABEL":"","NAME_AR":"ميري","NAME_BN":"মিরি","NAME_EL":"Μίρι","NAME_HI":"मिरी","NAME_HU":"Miri","NAME_ID":"Miri","NAME_IT":"Miri","NAME_JA":"ミリ","NAME_KO":"미리","NAME_NL":"Miri","NAME_PL":"Miri","NAME_SV":"Miri","NAME_TR":"Miri","NAME_VI":"Miri","NE_ID":1159136567,"NAME_FA":"میری","NAME_HE":"מירי","NAME_UK":"Мірі","NAME_UR":"میری","NAME_ZHT":"美里","GEONAMESID":1738050,"FCLASS_ISO":"","FCLASS_US":"","FCLASS_FR":"","FCLASS_RU":"","FCLASS_ES":"","FCLASS_CN":"","FCLASS_TW":"","FCLASS_IN":"","FCLASS_NP":"","FCLASS_PK":"","FCLASS_DE":"","FCLASS_GB":"","FCLASS_BR":"","FCLASS_IL":"","FCLASS_PS":"","FCLASS_SA":"","FCLASS_EG":"","FCLASS_MA":"","FCLASS_PT":"","FCLASS_AR":"","FCLASS_JP":"","FCLASS_KO":"","FCLASS_VN":"","FCLASS_TR":"","FCLASS_ID":"","FCLASS_PL":"","FCLASS_GR":"","FCLASS_IT":"","FCLASS_NL":"","FCLASS_SE":"","FCLASS_BD":"","FCLASS_UA":"","FCLASS_TLC":""}},{"type":"Point","coordinates":[103.7280944,1.4819705],"properties":{"SCALERANK":6,"NATSCALE":30,"LABELRANK":6,"FEATURECLA":"Admin-1 capital","NAME":"Johor Bahru","NAMEPAR":"","NAMEALT":"Johor Baharu|Johore Bharu","NAMEASCII":"Johor Bahru","ADM0CAP":0,"CAPIN":"","WORLDCITY":0,"MEGACITY":1,"SOV0NAME":"Malaysia","SOV_A3":"MYS","ADM0NAME":"Malaysia","ADM0_A3":"MYS","ADM1NAME":"Johor","ISO_A2":"MY","NOTE":"","LATITUDE":1.481971,"LONGITUDE":103.728094,"POP_MAX":875000,"POP_MIN":802489,"POP_OTHER":1808814,"RANK_MAX":11,"RANK_MIN":11,"MEGANAME":"Johore Bharu","LS_NAME":"Johor Bahru","MAX_POP10":846474,"MAX_POP20":0,"MAX_POP50":0,"MAX_POP300":0,"MAX_POP310":0,"MAX_NATSCA":10,"MIN_AREAKM":259,"MAX_AREAKM":259,"MIN_AREAMI":100,"MAX_AREAMI":100,"MIN_PERKM":215,"MAX_PERKM":215,"MIN_PERMI":134,"MAX_PERMI":134,"MIN_BBXMIN":103.608333,"MAX_BBXMIN":103.608333,"MIN_BBXMAX":103.936808,"MAX_BBXMAX":103.936808,"MIN_BBYMIN":1.447363,"MAX_BBYMIN":1.447363,"MIN_BBYMAX":1.641667,"MAX_BBYMAX":1.641667,"MEAN_BBXC":103.755578,"MEAN_BBYC":1.520001,"TIMEZONE":"Asia/Kuala_Lumpur","UN_FID":346,"POP1950":47,"POP1955":66,"POP1960":86,"POP1965":108,"POP1970":136,"POP1975":183,"POP1980":247,"POP1985":321,"POP1990":417,"POP1995":516,"POP2000":630,"POP2005":797,"POP2010":875,"POP2015":999,"POP2020":1175,"POP2025":1294,"POP2050":1382,"MIN_ZOOM":6,"WIKIDATAID":"Q231318","WOF_ID":102022781,"CAPALT":0,"NAME_EN":"Johor Bahru","NAME_DE":"Johor Bahru","NAME_ES":"Johor Bahru","NAME_FR":"Johor Bahru","NAME_PT":"Johor Bahru","NAME_RU":"Джохор-Бару","NAME_ZH":"新山","LABEL":"","NAME_AR":"جوهر بهرو","NAME_BN":"জোহর বাহরু","NAME_EL":"Τζοχόρ Μπάχρου","NAME_HI":"जोहोर बाहरू","NAME_HU":"Johor Bahru","NAME_ID":"Johor Bahru","NAME_IT":"Johor Bahru","NAME_JA":"ジョホールバル","NAME_KO":"조호르바루","NAME_NL":"Johor Bahru","NAME_PL":"Johor Bahru","NAME_SV":"Johor Baharu","NAME_TR":"Johor Bahru","NAME_VI":"Johor Bahru","NE_ID":1159146479,"NAME_FA":"جوهور بهرو","NAME_HE":"ג'והור באהרו","NAME_UK":"Джохор-Бару","NAME_UR":"جوھر بھرو","NAME_ZHT":"新山","GEONAMESID":1732752,"FCLASS_ISO":"","FCLASS_US":"","FCLASS_FR":"","FCLASS_RU":"","FCLASS_ES":"","FCLASS_CN":"","FCLASS_TW":"","FCLASS_IN":"","FCLASS_NP":"","FCLASS_PK":"","FCLASS_DE":"","FCLASS_GB":"","FCLASS_BR":"","FCLASS_IL":"","FCLASS_PS":"","FCLASS_SA":"","FCLASS_EG":"","FCLASS_MA":"","FCLASS_PT":"","FCLASS_AR":"","FCLASS_JP":"","FCLASS_KO":"","FCLASS_VN":"","FCLASS_TR":"","FCLASS_ID":"","FCLASS_PL":"","FCLASS_GR":"","FCLASS_IT":"","FCLASS_NL":"","FCLASS_SE":"","FCLASS_BD":"","FCLASS_UA":"","FCLASS_TLC":""}},{"type":"Point","coordinates":[101.4470587176879,3.043281395168714],"properties":{"SCALERANK":6,"NATSCALE":30,"LABELRANK":6,"FEATURECLA":"Admin-1 capital","NAME":"Kelang","NAMEPAR":"","NAMEALT":"Klang","NAMEASCII":"Kelang","ADM0CAP":0,"CAPIN":"","WORLDCITY":0,"MEGACITY":1,"SOV0NAME":"Malaysia","SOV_A3":"MYS","ADM0NAME":"Malaysia","ADM0_A3":"MYS","ADM1NAME":"Selangor","ISO_A2":"MY","NOTE":"","LATITUDE":3.022316,"LONGITUDE":101.548072,"POP_MAX":956000,"POP_MIN":879867,"POP_OTHER":1338951,"RANK_MAX":11,"RANK_MIN":11,"MEGANAME":"Klang","LS_NAME":"Kelang","MAX_POP10":1421542,"MAX_POP20":1424979,"MAX_POP50":0,"MAX_POP300":0,"MAX_POP310":0,"MAX_NATSCA":20,"MIN_AREAKM":513,"MAX_AREAKM":516,"MIN_AREAMI":198,"MAX_AREAMI":199,"MIN_PERKM":328,"MAX_PERKM":337,"MIN_PERMI":204,"MAX_PERMI":210,"MIN_BBXMIN":101.358333,"MAX_BBXMIN":101.358333,"MIN_BBXMAX":101.667382,"MAX_BBXMAX":101.667382,"MIN_BBYMIN":2.775,"MAX_BBYMIN":2.775,"MIN_BBYMAX":3.166667,"MAX_BBYMAX":3.166667,"MEAN_BBXC":101.513511,"MEAN_BBYC":3.014913,"TIMEZONE":"Asia/Kuala_Lumpur","UN_FID":347,"POP1950":42,"POP1955":64,"POP1960":83,"POP1965":97,"POP1970":113,"POP1975":148,"POP1980":193,"POP1985":258,"POP1990":345,"POP1995":466,"POP2000":631,"POP2005":849,"POP2010":956,"POP2015":1128,"POP2020":1360,"POP2025":1503,"POP2050":1603,"MIN_ZOOM":6,"WIKIDATAID":"Q856003","WOF_ID":102022835,"CAPALT":0,"NAME_EN":"Klang","NAME_DE":"Klang","NAME_ES":"Klang","NAME_FR":"Kelang","NAME_PT":"Klang","NAME_RU":"Кланг","NAME_ZH":"巴生","LABEL":"","NAME_AR":"كلاغ","NAME_BN":"ক্লাং","NAME_EL":"Κέλανγκ","NAME_HI":"कलंग","NAME_HU":"Klang","NAME_ID":"Klang","NAME_IT":"Klang","NAME_JA":"クラン","NAME_KO":"클랑","NAME_NL":"Klang","NAME_PL":"Kelang","NAME_SV":"Klang","NAME_TR":"Klang","NAME_VI":"Klang","NE_ID":1159146481,"NAME_FA":"کلانگ سیتی","NAME_HE":"קלנג","NAME_UK":"Кланг","NAME_UR":"کلانگ","NAME_ZHT":"巴生市","GEONAMESID":1732905,"FCLASS_ISO":"","FCLASS_US":"","FCLASS_FR":"","FCLASS_RU":"","FCLASS_ES":"","FCLASS_CN":"","FCLASS_TW":"","FCLASS_IN":"","FCLASS_NP":"","FCLASS_PK":"","FCLASS_DE":"","FCLASS_GB":"","FCLASS_BR":"","FCLASS_IL":"","FCLASS_PS":"","FCLASS_SA":"","FCLASS_EG":"","FCLASS_MA":"","FCLASS_PT":"","FCLASS_AR":"","FCLASS_JP":"","FCLASS_KO":"","FCLASS_VN":"","FCLASS_TR":"","FCLASS_ID":"","FCLASS_PL":"","FCLASS_GR":"","FCLASS_IT":"","FCLASS_NL":"","FCLASS_SE":"","FCLASS_BD":"","FCLASS_UA":"","FCLASS_TLC":""}},{"type":"Point","coordinates":[100.7199914,4.8649601],"properties":{"SCALERANK":6,"NATSCALE":30,"LABELRANK":6,"FEATURECLA":"Populated place","NAME":"Taiping","NAMEPAR":"","NAMEALT":"","NAMEASCII":"Taiping","ADM0CAP":0,"CAPIN":"","WORLDCITY":0,"MEGACITY":0,"SOV0NAME":"Malaysia","SOV_A3":"MYS","ADM0NAME":"Malaysia","ADM0_A3":"MYS","ADM1NAME":"Perak","ISO_A2":"MY","NOTE":"","LATITUDE":4.86496,"LONGITUDE":100.719991,"POP_MAX":237095,"POP_MIN":217647,"POP_OTHER":251284,"RANK_MAX":10,"RANK_MIN":10,"MEGANAME":"","LS_NAME":"Taiping","MAX_POP10":237095,"MAX_POP20":0,"MAX_POP50":0,"MAX_POP300":0,"MAX_POP310":0,"MAX_NATSCA":10,"MIN_AREAKM":60,"MAX_AREAKM":60,"MIN_AREAMI":23,"MAX_AREAMI":23,"MIN_PERKM":52,"MAX_PERKM":52,"MIN_PERMI":32,"MAX_PERMI":32,"MIN_BBXMIN":100.683333,"MAX_BBXMIN":100.683333,"MIN_BBXMAX":100.758333,"MAX_BBXMAX":100.758333,"MIN_BBYMIN":4.8,"MAX_BBYMIN":4.8,"MIN_BBYMAX":4.925,"MAX_BBYMAX":4.925,"MEAN_BBXC":100.725595,"MEAN_BBYC":4.852738,"TIMEZONE":"Asia/Kuala_Lumpur","UN_FID":0,"POP1950":0,"POP1955":0,"POP1960":0,"POP1965":0,"POP1970":0,"POP1975":0,"POP1980":0,"POP1985":0,"POP1990":0,"POP1995":0,"POP2000":0,"POP2005":0,"POP2010":0,"POP2015":0,"POP2020":0,"POP2025":0,"POP2050":0,"MIN_ZOOM":6,"WIKIDATAID":"Q1011190","WOF_ID":102023003,"CAPALT":0,"NAME_EN":"Taiping","NAME_DE":"Taiping","NAME_ES":"Taiping","NAME_FR":"Taiping","NAME_PT":"Taiping","NAME_RU":"Тайпинг","NAME_ZH":"太平","LABEL":"","NAME_AR":"تايبينغ","NAME_BN":"তাইপিং","NAME_EL":"Τάιπινγκ","NAME_HI":"ताइपिंग","NAME_HU":"Taiping","NAME_ID":"Taiping","NAME_IT":"Taiping","NAME_JA":"タイピン","NAME_KO":"타이핑","NAME_NL":"Taiping","NAME_PL":"Taiping","NAME_SV":"Taiping","NAME_TR":"Taiping","NAME_VI":"Taiping","NE_ID":1159148311,"NAME_FA":"تایپینگ","NAME_HE":"טייפינג","NAME_UK":"Тайпінг","NAME_UR":"تایپینج","NAME_ZHT":"太平","GEONAMESID":1734586,"FCLASS_ISO":"","FCLASS_US":"","FCLASS_FR":"","FCLASS_RU":"","FCLASS_ES":"","FCLASS_CN":"","FCLASS_TW":"","FCLASS_IN":"","FCLASS_NP":"","FCLASS_PK":"","FCLASS_DE":"","FCLASS_GB":"","FCLASS_BR":"","FCLASS_IL":"","FCLASS_PS":"","FCLASS_SA":"","FCLASS_EG":"","FCLASS_MA":"","FCLASS_PT":"","FCLASS_AR":"","FCLASS_JP":"","FCLASS_KO":"","FCLASS_VN":"","FCLASS_TR":"","FCLASS_ID":"","FCLASS_PL":"","FCLASS_GR":"","FCLASS_IT":"","FCLASS_NL":"","FCLASS_SE":"","FCLASS_BD":"","FCLASS_UA":"","FCLASS_TLC":""}},{"type":"Point","coordinates":[101.0649833,4.5999892],"properties":{"SCALERANK":6,"NATSCALE":30,"LABELRANK":6,"FEATURECLA":"Admin-1 capital","NAME":"Ipoh","NAMEPAR":"","NAMEALT":"","NAMEASCII":"Ipoh","ADM0CAP":0,"CAPIN":"","WORLDCITY":0,"MEGACITY":0,"SOV0NAME":"Malaysia","SOV_A3":"MYS","ADM0NAME":"Malaysia","ADM0_A3":"MYS","ADM1NAME":"Perak","ISO_A2":"MY","NOTE":"","LATITUDE":4.599989,"LONGITUDE":101.064983,"POP_MAX":673318,"POP_MIN":639136,"POP_OTHER":639296,"RANK_MAX":11,"RANK_MIN":11,"MEGANAME":"","LS_NAME":"Ipoh","MAX_POP10":639136,"MAX_POP20":639136,"MAX_POP50":0,"MAX_POP300":0,"MAX_POP310":0,"MAX_NATSCA":20,"MIN_AREAKM":160,"MAX_AREAKM":160,"MIN_AREAMI":62,"MAX_AREAMI":62,"MIN_PERKM":144,"MAX_PERKM":144,"MIN_PERMI":89,"MAX_PERMI":89,"MIN_BBXMIN":101.025,"MAX_BBXMIN":101.025,"MIN_BBXMAX":101.166667,"MAX_BBXMAX":101.166667,"MIN_BBYMIN":4.508333,"MAX_BBYMIN":4.508333,"MIN_BBYMAX":4.775,"MAX_BBYMAX":4.775,"MEAN_BBXC":101.099379,"MEAN_BBYC":4.61516,"TIMEZONE":"Asia/Kuala_Lumpur","UN_FID":0,"POP1950":0,"POP1955":0,"POP1960":0,"POP1965":0,"POP1970":0,"POP1975":0,"POP1980":0,"POP1985":0,"POP1990":0,"POP1995":0,"POP2000":0,"POP2005":0,"POP2010":0,"POP2015":0,"POP2020":0,"POP2025":0,"POP2050":0,"MIN_ZOOM":6,"WIKIDATAID":"Q271619","WOF_ID":102023021,"CAPALT":0,"NAME_EN":"Ipoh","NAME_DE":"Ipoh","NAME_ES":"Ipoh","NAME_FR":"Ipoh","NAME_PT":"Ipoh","NAME_RU":"Ипох","NAME_ZH":"怡保","LABEL":"","NAME_AR":"إيبوه","NAME_BN":"ইপো","NAME_EL":"Ίπο","NAME_HI":"इपोह","NAME_HU":"Ipoh","NAME_ID":"Ipoh","NAME_IT":"Ipoh","NAME_JA":"イポー","NAME_KO":"이포","NAME_NL":"Ipoh","NAME_PL":"Ipoh","NAME_SV":"Ipoh","NAME_TR":"Ipoh","NAME_VI":"Ipoh","NE_ID":1159148315,"NAME_FA":"ایپوه","NAME_HE":"איפוה","NAME_UK":"Іпох","NAME_UR":"ایپو","NAME_ZHT":"怡保","GEONAMESID":1734634,"FCLASS_ISO":"","FCLASS_US":"","FCLASS_FR":"","FCLASS_RU":"","FCLASS_ES":"","FCLASS_CN":"","FCLASS_TW":"","FCLASS_IN":"","FCLASS_NP":"","FCLASS_PK":"","FCLASS_DE":"","FCLASS_GB":"","FCLASS_BR":"","FCLASS_IL":"","FCLASS_PS":"","FCLASS_SA":"","FCLASS_EG":"","FCLASS_MA":"","FCLASS_PT":"","FCLASS_AR":"","FCLASS_JP":"","FCLASS_KO":"","FCLASS_VN":"","FCLASS_TR":"","FCLASS_ID":"","FCLASS_PL":"","FCLASS_GR":"","FCLASS_IT":"","FCLASS_NL":"","FCLASS_SE":"","FCLASS_BD":"","FCLASS_UA":"","FCLASS_TLC":""}},{"type":"Point","coordinates":[102.2299768,6.119974],"properties":{"SCALERANK":6,"NATSCALE":30,"LABELRANK":6,"FEATURECLA":"Admin-1 capital","NAME":"Kota Baharu","NAMEPAR":"","NAMEALT":"","NAMEASCII":"Kota Baharu","ADM0CAP":0,"CAPIN":"","WORLDCITY":0,"MEGACITY":0,"SOV0NAME":"Malaysia","SOV_A3":"MYS","ADM0NAME":"Malaysia","ADM0_A3":"MYS","ADM1NAME":"Kelantan","ISO_A2":"MY","NOTE":"","LATITUDE":6.119974,"LONGITUDE":102.229977,"POP_MAX":505583,"POP_MIN":279316,"POP_OTHER":0,"RANK_MAX":11,"RANK_MIN":10,"MEGANAME":"","LS_NAME":"Kota Baharu","MAX_POP10":505583,"MAX_POP20":505583,"MAX_POP50":0,"MAX_POP300":0,"MAX_POP310":0,"MAX_NATSCA":20,"MIN_AREAKM":247,"MAX_AREAKM":247,"MIN_AREAMI":95,"MAX_AREAMI":95,"MIN_PERKM":286,"MAX_PERKM":286,"MIN_PERMI":178,"MAX_PERMI":178,"MIN_BBXMIN":102.158333,"MAX_BBXMIN":102.158333,"MIN_BBXMAX":102.425,"MAX_BBXMAX":102.425,"MIN_BBYMIN":5.958333,"MAX_BBYMIN":5.958333,"MIN_BBYMAX":6.208333,"MAX_BBYMAX":6.208333,"MEAN_BBXC":102.290086,"MEAN_BBYC":6.096351,"TIMEZONE":"Asia/Kuala_Lumpur","UN_FID":0,"POP1950":0,"POP1955":0,"POP1960":0,"POP1965":0,"POP1970":0,"POP1975":0,"POP1980":0,"POP1985":0,"POP1990":0,"POP1995":0,"POP2000":0,"POP2005":0,"POP2010":0,"POP2015":0,"POP2020":0,"POP2025":0,"POP2050":0,"MIN_ZOOM":6,"WIKIDATAID":"Q651131","WOF_ID":102023655,"CAPALT":0,"NAME_EN":"Kota Bharu","NAME_DE":"Kota Bharu","NAME_ES":"Kota Bharu","NAME_FR":"Kota Bharu","NAME_PT":"Kota Bharu","NAME_RU":"Кота-Бару","NAME_ZH":"哥打巴鲁","LABEL":"","NAME_AR":"كوتا بهارو","NAME_BN":"কোটা ভারু","NAME_EL":"Κότα Μπάχρου","NAME_HI":"कोता भारू","NAME_HU":"Kota Baharu","NAME_ID":"Kota Bharu","NAME_IT":"Kota Bharu","NAME_JA":"コタバル","NAME_KO":"코타바루","NAME_NL":"Kota Bharu","NAME_PL":"Kota Bharu","NAME_SV":"Kota Bharu","NAME_TR":"Kota Bharu","NAME_VI":"Kota Bharu","NE_ID":1159148317,"NAME_FA":"کوتا بهارو","NAME_HE":"קוטה בהרו","NAME_UK":"Кота-Бару","NAME_UR":"کوتا بھرو","NAME_ZHT":"哥打巴魯","GEONAMESID":1736376,"FCLASS_ISO":"","FCLASS_US":"","FCLASS_FR":"","FCLASS_RU":"","FCLASS_ES":"","FCLASS_CN":"","FCLASS_TW":"","FCLASS_IN":"","FCLASS_NP":"","FCLASS_PK":"","FCLASS_DE":"","FCLASS_GB":"","FCLASS_BR":"","FCLASS_IL":"","FCLASS_PS":"","FCLASS_SA":"","FCLASS_EG":"","FCLASS_MA":"","FCLASS_PT":"","FCLASS_AR":"","FCLASS_JP":"","FCLASS_KO":"","FCLASS_VN":"","FCLASS_TR":"","FCLASS_ID":"","FCLASS_PL":"","FCLASS_GR":"","FCLASS_IT":"","FCLASS_NL":"","FCLASS_SE":"","FCLASS_BD":"","FCLASS_UA":"","FCLASS_TLC":""}},{"type":"Point","coordinates":[102.2464615,2.2064144],"properties":{"SCALERANK":6,"NATSCALE":30,"LABELRANK":6,"FEATURECLA":"Admin-1 capital","NAME":"Malacca","NAMEPAR":"","NAMEALT":"Melaka","NAMEASCII":"Malacca","ADM0CAP":0,"CAPIN":"","WORLDCITY":0,"MEGACITY":0,"SOV0NAME":"Malaysia","SOV_A3":"MYS","ADM0NAME":"Malaysia","ADM0_A3":"MYS","ADM1NAME":"Melaka","ISO_A2":"MY","NOTE":"","LATITUDE":2.206414,"LONGITUDE":102.246462,"POP_MAX":788706,"POP_MIN":503127,"POP_OTHER":434626,"RANK_MAX":11,"RANK_MIN":11,"MEGANAME":"","LS_NAME":"Malacca","MAX_POP10":433828,"MAX_POP20":440886,"MAX_POP50":0,"MAX_POP300":0,"MAX_POP310":0,"MAX_NATSCA":20,"MIN_AREAKM":300,"MAX_AREAKM":316,"MIN_AREAMI":116,"MAX_AREAMI":122,"MIN_PERKM":322,"MAX_PERKM":327,"MIN_PERMI":200,"MAX_PERMI":203,"MIN_BBXMIN":102.1,"MAX_BBXMIN":102.1,"MIN_BBXMAX":102.431811,"MAX_BBXMAX":102.45,"MIN_BBYMIN":2.133333,"MAX_BBYMIN":2.133333,"MIN_BBYMAX":2.483333,"MAX_BBYMAX":2.483333,"MEAN_BBXC":102.251721,"MEAN_BBYC":2.264041,"TIMEZONE":"Asia/Kuala_Lumpur","UN_FID":0,"POP1950":0,"POP1955":0,"POP1960":0,"POP1965":0,"POP1970":0,"POP1975":0,"POP1980":0,"POP1985":0,"POP1990":0,"POP1995":0,"POP2000":0,"POP2005":0,"POP2010":0,"POP2015":0,"POP2020":0,"POP2025":0,"POP2050":0,"MIN_ZOOM":6,"WIKIDATAID":"Q61089","WOF_ID":102023085,"CAPALT":0,"NAME_EN":"Melaka City","NAME_DE":"Malakka","NAME_ES":"Malaca","NAME_FR":"Malacca","NAME_PT":"Malaca","NAME_RU":"Малакка","NAME_ZH":"马六甲","LABEL":"","NAME_AR":"مدينة ملقا","NAME_BN":"মালাক্কা","NAME_EL":"Μαλάκα Σίτι","NAME_HI":"मलैका","NAME_HU":"Melaka","NAME_ID":"Kota Melaka","NAME_IT":"Malacca","NAME_JA":"ムラカ","NAME_KO":"믈라카","NAME_NL":"Malakka","NAME_PL":"Malakka","NAME_SV":"Malacka","NAME_TR":"Malakka","NAME_VI":"Malacca","NE_ID":1159148319,"NAME_FA":"ملاکا","NAME_HE":"מלאקה","NAME_UK":"Малакка","NAME_UR":"ملاکا شہر","NAME_ZHT":"馬六甲市","GEONAMESID":1734759,"FCLASS_ISO":"","FCLASS_US":"","FCLASS_FR":"","FCLASS_RU":"","FCLASS_ES":"","FCLASS_CN":"","FCLASS_TW":"","FCLASS_IN":"","FCLASS_NP":"","FCLASS_PK":"","FCLASS_DE":"","FCLASS_GB":"","FCLASS_BR":"","FCLASS_IL":"","FCLASS_PS":"","FCLASS_SA":"","FCLASS_EG":"","FCLASS_MA":"","FCLASS_PT":"","FCLASS_AR":"","FCLASS_JP":"","FCLASS_KO":"","FCLASS_VN":"","FCLASS_TR":"","FCLASS_ID":"","FCLASS_PL":"","FCLASS_GR":"","FCLASS_IT":"","FCLASS_NL":"","FCLASS_SE":"","FCLASS_BD":"","FCLASS_UA":"","FCLASS_TLC":""}},{"type":"Point","coordinates":[103.3200394,3.8299587],"properties":{"SCALERANK":6,"NATSCALE":30,"LABELRANK":6,"FEATURECLA":"Admin-1 capital","NAME":"Kuantan","NAMEPAR":"","NAMEALT":"","NAMEASCII":"Kuantan","ADM0CAP":0,"CAPIN":"","WORLDCITY":0,"MEGACITY":0,"SOV0NAME":"Malaysia","SOV_A3":"MYS","ADM0NAME":"Malaysia","ADM0_A3":"MYS","ADM1NAME":"Pahang","ISO_A2":"MY","NOTE":"","LATITUDE":3.829959,"LONGITUDE":103.320039,"POP_MAX":366229,"POP_MIN":274695,"POP_OTHER":274864,"RANK_MAX":10,"RANK_MIN":10,"MEGANAME":"","LS_NAME":"Kuantan","MAX_POP10":274695,"MAX_POP20":274695,"MAX_POP50":0,"MAX_POP300":0,"MAX_POP310":0,"MAX_NATSCA":20,"MIN_AREAKM":44,"MAX_AREAKM":44,"MIN_AREAMI":17,"MAX_AREAMI":17,"MIN_PERKM":54,"MAX_PERKM":54,"MIN_PERMI":33,"MAX_PERMI":33,"MIN_BBXMIN":103.266667,"MAX_BBXMIN":103.266667,"MIN_BBXMAX":103.366667,"MAX_BBXMAX":103.366667,"MIN_BBYMIN":3.775,"MAX_BBYMIN":3.775,"MIN_BBYMAX":3.858333,"MAX_BBYMAX":3.858333,"MEAN_BBXC":103.321955,"MEAN_BBYC":3.817468,"TIMEZONE":"Asia/Kuala_Lumpur","UN_FID":0,"POP1950":0,"POP1955":0,"POP1960":0,"POP1965":0,"POP1970":0,"POP1975":0,"POP1980":0,"POP1985":0,"POP1990":0,"POP1995":0,"POP2000":0,"POP2005":0,"POP2010":0,"POP2015":0,"POP2020":0,"POP2025":0,"POP2050":0,"MIN_ZOOM":6,"WIKIDATAID":"Q817578","WOF_ID":102023459,"CAPALT":0,"NAME_EN":"Kuantan","NAME_DE":"Kuantan","NAME_ES":"Kuantan","NAME_FR":"Kuantan","NAME_PT":"Kuantan","NAME_RU":"Куантан","NAME_ZH":"关丹","LABEL":"","NAME_AR":"كوانتان","NAME_BN":"কুয়ান্তান","NAME_EL":"Κουαντάν","NAME_HI":"कुआंतान","NAME_HU":"Kuantan","NAME_ID":"Kuantan","NAME_IT":"Kuantan","NAME_JA":"クアンタン","NAME_KO":"쿠안탄","NAME_NL":"Kuantan","NAME_PL":"Kuantan","NAME_SV":"Kuantan","NAME_TR":"Kuantan","NAME_VI":"Kuantan","NE_ID":1159148321,"NAME_FA":"کوانتان","NAME_HE":"קואנטן","NAME_UK":"Куантан","NAME_UR":"کوانتان","NAME_ZHT":"關丹","GEONAMESID":1735227,"FCLASS_ISO":"","FCLASS_US":"","FCLASS_FR":"","FCLASS_RU":"","FCLASS_ES":"","FCLASS_CN":"","FCLASS_TW":"","FCLASS_IN":"","FCLASS_NP":"","FCLASS_PK":"","FCLASS_DE":"","FCLASS_GB":"","FCLASS_BR":"","FCLASS_IL":"","FCLASS_PS":"","FCLASS_SA":"","FCLASS_EG":"","FCLASS_MA":"","FCLASS_PT":"","FCLASS_AR":"","FCLASS_JP":"","FCLASS_KO":"","FCLASS_VN":"","FCLASS_TR":"","FCLASS_ID":"","FCLASS_PL":"","FCLASS_GR":"","FCLASS_IT":"","FCLASS_NL":"","FCLASS_SE":"","FCLASS_BD":"","FCLASS_UA":"","FCLASS_TLC":""}},{"type":"Point","coordinates":[117.8959973,4.2709654],"properties":{"SCALERANK":6,"NATSCALE":30,"LABELRANK":6,"FEATURECLA":"Populated place","NAME":"Tawau","NAMEPAR":"","NAMEALT":"","NAMEASCII":"Tawau","ADM0CAP":0,"CAPIN":"","WORLDCITY":0,"MEGACITY":0,"SOV0NAME":"Malaysia","SOV_A3":"MYS","ADM0NAME":"Malaysia","ADM0_A3":"MYS","ADM1NAME":"Sabah","ISO_A2":"MY","NOTE":"","LATITUDE":4.270965,"LONGITUDE":117.895997,"POP_MAX":306462,"POP_MIN":289531,"POP_OTHER":289531,"RANK_MAX":10,"RANK_MIN":10,"MEGANAME":"","LS_NAME":"Tawau","MAX_POP10":289531,"MAX_POP20":289531,"MAX_POP50":0,"MAX_POP300":0,"MAX_POP310":0,"MAX_NATSCA":20,"MIN_AREAKM":56,"MAX_AREAKM":56,"MIN_AREAMI":22,"MAX_AREAMI":22,"MIN_PERKM":57,"MAX_PERKM":57,"MIN_PERMI":36,"MAX_PERMI":36,"MIN_BBXMIN":117.833333,"MAX_BBXMIN":117.833333,"MIN_BBXMAX":117.95,"MAX_BBXMAX":117.95,"MIN_BBYMIN":4.233333,"MAX_BBYMIN":4.233333,"MIN_BBYMAX":4.316667,"MAX_BBYMAX":4.316667,"MEAN_BBXC":117.894571,"MEAN_BBYC":4.271212,"TIMEZONE":"Asia/Kuching","UN_FID":0,"POP1950":0,"POP1955":0,"POP1960":0,"POP1965":0,"POP1970":0,"POP1975":0,"POP1980":0,"POP1985":0,"POP1990":0,"POP1995":0,"POP2000":0,"POP2005":0,"POP2010":0,"POP2015":0,"POP2020":0,"POP2025":0,"POP2050":0,"MIN_ZOOM":6,"WIKIDATAID":"Q995163","WOF_ID":102022935,"CAPALT":0,"NAME_EN":"Tawau","NAME_DE":"Tawau","NAME_ES":"Tawau","NAME_FR":"Tawau","NAME_PT":"Tawau","NAME_RU":"Тавау","NAME_ZH":"斗湖","LABEL":"","NAME_AR":"تاواو","NAME_BN":"তাবাউ","NAME_EL":"Ταβάου","NAME_HI":"तवौ","NAME_HU":"Tawau","NAME_ID":"Tawau","NAME_IT":"Tawau","NAME_JA":"タワウ","NAME_KO":"타와우","NAME_NL":"Tawau","NAME_PL":"Tawau","NAME_SV":"Tawau","NAME_TR":"Tawau","NAME_VI":"Tawau","NE_ID":1159148329,"NAME_FA":"تاوو","NAME_HE":"טוואו","NAME_UK":"Тавау","NAME_UR":"تاواو","NAME_ZHT":"斗湖","GEONAMESID":1734199,"FCLASS_ISO":"","FCLASS_US":"","FCLASS_FR":"","FCLASS_RU":"","FCLASS_ES":"","FCLASS_CN":"","FCLASS_TW":"","FCLASS_IN":"","FCLASS_NP":"","FCLASS_PK":"","FCLASS_DE":"","FCLASS_GB":"","FCLASS_BR":"","FCLASS_IL":"","FCLASS_PS":"","FCLASS_SA":"","FCLASS_EG":"","FCLASS_MA":"","FCLASS_PT":"","FCLASS_AR":"","FCLASS_JP":"","FCLASS_KO":"","FCLASS_VN":"","FCLASS_TR":"","FCLASS_ID":"","FCLASS_PL":"","FCLASS_GR":"","FCLASS_IT":"","FCLASS_NL":"","FCLASS_SE":"","FCLASS_BD":"","FCLASS_UA":"","FCLASS_TLC":""}},{"type":"Point","coordinates":[118.107974,5.8429625],"properties":{"SCALERANK":6,"NATSCALE":30,"LABELRANK":6,"FEATURECLA":"Populated place","NAME":"Sandakan","NAMEPAR":"","NAMEALT":"","NAMEASCII":"Sandakan","ADM0CAP":0,"CAPIN":"","WORLDCITY":0,"MEGACITY":0,"SOV0NAME":"Malaysia","SOV_A3":"MYS","ADM0NAME":"Malaysia","ADM0_A3":"MYS","ADM1NAME":"Sabah","ISO_A2":"MY","NOTE":"","LATITUDE":5.842963,"LONGITUDE":118.107974,"POP_MAX":392288,"POP_MIN":291289,"POP_OTHER":291451,"RANK_MAX":10,"RANK_MIN":10,"MEGANAME":"","LS_NAME":"Sandakan","MAX_POP10":291289,"MAX_POP20":291289,"MAX_POP50":0,"MAX_POP300":0,"MAX_POP310":0,"MAX_NATSCA":20,"MIN_AREAKM":52,"MAX_AREAKM":52,"MIN_AREAMI":20,"MAX_AREAMI":20,"MIN_PERKM":72,"MAX_PERKM":72,"MIN_PERMI":45,"MAX_PERMI":45,"MIN_BBXMIN":118.008333,"MAX_BBXMIN":118.008333,"MIN_BBXMAX":118.133333,"MAX_BBXMAX":118.133333,"MIN_BBYMIN":5.825,"MAX_BBYMIN":5.825,"MIN_BBYMAX":5.908333,"MAX_BBYMAX":5.908333,"MEAN_BBXC":118.078484,"MEAN_BBYC":5.865915,"TIMEZONE":"Asia/Kuching","UN_FID":0,"POP1950":0,"POP1955":0,"POP1960":0,"POP1965":0,"POP1970":0,"POP1975":0,"POP1980":0,"POP1985":0,"POP1990":0,"POP1995":0,"POP2000":0,"POP2005":0,"POP2010":0,"POP2015":0,"POP2020":0,"POP2025":0,"POP2050":0,"MIN_ZOOM":6,"WIKIDATAID":"Q137203","WOF_ID":102022919,"CAPALT":0,"NAME_EN":"Sandakan","NAME_DE":"Sandakan","NAME_ES":"Sandakan","NAME_FR":"Sandakan","NAME_PT":"Sandakan","NAME_RU":"Сандакан","NAME_ZH":"山打根","LABEL":"","NAME_AR":"سانداكان","NAME_BN":"সান্ডাকান","NAME_EL":"Σαντακάν","NAME_HI":"संडाकां","NAME_HU":"Sandakan","NAME_ID":"Sandakan","NAME_IT":"Sandakan","NAME_JA":"サンダカン","NAME_KO":"산다칸","NAME_NL":"Sandakan","NAME_PL":"Sandakan","NAME_SV":"Sandakan","NAME_TR":"Sandakan","NAME_VI":"Sandakan","NE_ID":1159148333,"NAME_FA":"سانداکان","NAME_HE":"סנדקן","NAME_UK":"Сандакан","NAME_UR":"سنداکان","NAME_ZHT":"山打根","GEONAMESID":1734052,"FCLASS_ISO":"","FCLASS_US":"","FCLASS_FR":"","FCLASS_RU":"","FCLASS_ES":"","FCLASS_CN":"","FCLASS_TW":"","FCLASS_IN":"","FCLASS_NP":"","FCLASS_PK":"","FCLASS_DE":"","FCLASS_GB":"","FCLASS_BR":"","FCLASS_IL":"","FCLASS_PS":"","FCLASS_SA":"","FCLASS_EG":"","FCLASS_MA":"","FCLASS_PT":"","FCLASS_AR":"","FCLASS_JP":"","FCLASS_KO":"","FCLASS_VN":"","FCLASS_TR":"","FCLASS_ID":"","FCLASS_PL":"","FCLASS_GR":"","FCLASS_IT":"","FCLASS_NL":"","FCLASS_SE":"","FCLASS_BD":"","FCLASS_UA":"","FCLASS_TLC":""}},{"type":"Point","coordinates":[116.1100081,5.9799825],"properties":{"SCALERANK":6,"NATSCALE":30,"LABELRANK":6,"FEATURECLA":"Admin-1 capital","NAME":"Kota Kinabalu","NAMEPAR":"","NAMEALT":"","NAMEASCII":"Kota Kinabalu","ADM0CAP":0,"CAPIN":"","WORLDCITY":0,"MEGACITY":0,"SOV0NAME":"Malaysia","SOV_A3":"MYS","ADM0NAME":"Malaysia","ADM0_A3":"MYS","ADM1NAME":"Sabah","ISO_A2":"MY","NOTE":"","LATITUDE":5.979983,"LONGITUDE":116.110008,"POP_MAX":527671,"POP_MIN":457326,"POP_OTHER":528165,"RANK_MAX":11,"RANK_MIN":10,"MEGANAME":"","LS_NAME":"Kota Kinabalu","MAX_POP10":527671,"MAX_POP20":0,"MAX_POP50":0,"MAX_POP300":0,"MAX_POP310":0,"MAX_NATSCA":10,"MIN_AREAKM":181,"MAX_AREAKM":181,"MIN_AREAMI":70,"MAX_AREAMI":70,"MIN_PERKM":122,"MAX_PERKM":122,"MIN_PERMI":76,"MAX_PERMI":76,"MIN_BBXMIN":116.033333,"MAX_BBXMIN":116.033333,"MIN_BBXMAX":116.175,"MAX_BBXMAX":116.175,"MIN_BBYMIN":5.808333,"MAX_BBYMIN":5.808333,"MIN_BBYMAX":6.058333,"MAX_BBYMAX":6.058333,"MEAN_BBXC":116.095442,"MEAN_BBYC":5.942664,"TIMEZONE":"Asia/Kuching","UN_FID":0,"POP1950":0,"POP1955":0,"POP1960":0,"POP1965":0,"POP1970":0,"POP1975":0,"POP1980":0,"POP1985":0,"POP1990":0,"POP1995":0,"POP2000":0,"POP2005":0,"POP2010":0,"POP2015":0,"POP2020":0,"POP2025":0,"POP2050":0,"MIN_ZOOM":6,"WIKIDATAID":"Q137271","WOF_ID":102022883,"CAPALT":0,"NAME_EN":"Kota Kinabalu","NAME_DE":"Kota Kinabalu","NAME_ES":"Kota Kinabalu","NAME_FR":"Kota Kinabalu","NAME_PT":"Kota Kinabalu","NAME_RU":"Кота-Кинабалу","NAME_ZH":"亚庇","LABEL":"","NAME_AR":"كوتا كينابالو","NAME_BN":"কোটা কিনাবালু","NAME_EL":"Κότα Κιναμπάλου","NAME_HI":"कोता किनाबालू","NAME_HU":"Kota Kinabalu","NAME_ID":"Kota Kinabalu","NAME_IT":"Kota Kinabalu","NAME_JA":"コタキナバル","NAME_KO":"코타키나발루","NAME_NL":"Kota Kinabalu","NAME_PL":"Kota Kinabalu","NAME_SV":"Kota Kinabalu","NAME_TR":"Kota Kinabalu","NAME_VI":"Kota Kinabalu","NE_ID":1159148335,"NAME_FA":"کوتا کینابالو","NAME_HE":"קוטה קינבאלו","NAME_UK":"Кота-Кінабалу","NAME_UR":"کوتا کینابالو","NAME_ZHT":"亞庇","GEONAMESID":1733432,"FCLASS_ISO":"","FCLASS_US":"","FCLASS_FR":"","FCLASS_RU":"","FCLASS_ES":"","FCLASS_CN":"","FCLASS_TW":"","FCLASS_IN":"","FCLASS_NP":"","FCLASS_PK":"","FCLASS_DE":"","FCLASS_GB":"","FCLASS_BR":"","FCLASS_IL":"","FCLASS_PS":"","FCLASS_SA":"","FCLASS_EG":"","FCLASS_MA":"","FCLASS_PT":"","FCLASS_AR":"","FCLASS_JP":"","FCLASS_KO":"","FCLASS_VN":"","FCLASS_TR":"","FCLASS_ID":"","FCLASS_PL":"","FCLASS_GR":"","FCLASS_IT":"","FCLASS_NL":"","FCLASS_SE":"","FCLASS_BD":"","FCLASS_UA":"","FCLASS_TLC":""}},{"type":"Point","coordinates":[111.8430334,2.3029718],"properties":{"SCALERANK":6,"NATSCALE":30,"LABELRANK":6,"FEATURECLA":"Populated place","NAME":"Sibu","NAMEPAR":"","NAMEALT":"","NAMEASCII":"Sibu","ADM0CAP":0,"CAPIN":"","WORLDCITY":0,"MEGACITY":0,"SOV0NAME":"Malaysia","SOV_A3":"MYS","ADM0NAME":"Malaysia","ADM0_A3":"MYS","ADM1NAME":"Sarawak","ISO_A2":"MY","NOTE":"","LATITUDE":2.302972,"LONGITUDE":111.843033,"POP_MAX":203832,"POP_MIN":198239,"POP_OTHER":203832,"RANK_MAX":10,"RANK_MIN":9,"MEGANAME":"","LS_NAME":"Sibu","MAX_POP10":203832,"MAX_POP20":0,"MAX_POP50":0,"MAX_POP300":0,"MAX_POP310":0,"MAX_NATSCA":10,"MIN_AREAKM":56,"MAX_AREAKM":56,"MIN_AREAMI":21,"MAX_AREAMI":21,"MIN_PERKM":50,"MAX_PERKM":50,"MIN_PERMI":31,"MAX_PERMI":31,"MIN_BBXMIN":111.808333,"MAX_BBXMIN":111.808333,"MIN_BBXMAX":111.883333,"MAX_BBXMAX":111.883333,"MIN_BBYMIN":2.233333,"MAX_BBYMIN":2.233333,"MIN_BBYMAX":2.35,"MAX_BBYMAX":2.35,"MEAN_BBXC":111.844936,"MEAN_BBYC":2.287756,"TIMEZONE":"Asia/Kuching","UN_FID":0,"POP1950":0,"POP1955":0,"POP1960":0,"POP1965":0,"POP1970":0,"POP1975":0,"POP1980":0,"POP1985":0,"POP1990":0,"POP1995":0,"POP2000":0,"POP2005":0,"POP2010":0,"POP2015":0,"POP2020":0,"POP2025":0,"POP2050":0,"MIN_ZOOM":6,"WIKIDATAID":"Q1048700","WOF_ID":102023589,"CAPALT":0,"NAME_EN":"Sibu","NAME_DE":"Sibu","NAME_ES":"Sibu","NAME_FR":"Sibu","NAME_PT":"Sibu","NAME_RU":"Сибу","NAME_ZH":"诗巫","LABEL":"","NAME_AR":"سيبو","NAME_BN":"সগর","NAME_EL":"Σίμπου","NAME_HI":"सिबु","NAME_HU":"Sibu","NAME_ID":"Sibu","NAME_IT":"Sibu","NAME_JA":"シブ","NAME_KO":"시부","NAME_NL":"Sibu","NAME_PL":"Sibu","NAME_SV":"Sibu","NAME_TR":"Sibu","NAME_VI":"Sibu","NE_ID":1159148337,"NAME_FA":"سیبو","NAME_HE":"סיבו","NAME_UK":"Сібу","NAME_UR":"سیبو","NAME_ZHT":"詩巫","GEONAMESID":1735902,"FCLASS_ISO":"","FCLASS_US":"","FCLASS_FR":"","FCLASS_RU":"","FCLASS_ES":"","FCLASS_CN":"","FCLASS_TW":"","FCLASS_IN":"","FCLASS_NP":"","FCLASS_PK":"","FCLASS_DE":"","FCLASS_GB":"","FCLASS_BR":"","FCLASS_IL":"","FCLASS_PS":"","FCLASS_SA":"","FCLASS_EG":"","FCLASS_MA":"","FCLASS_PT":"","FCLASS_AR":"","FCLASS_JP":"","FCLASS_KO":"","FCLASS_VN":"","FCLASS_TR":"","FCLASS_ID":"","FCLASS_PL":"","FCLASS_GR":"","FCLASS_IT":"","FCLASS_NL":"","FCLASS_SE":"","FCLASS_BD":"","FCLASS_UA":"","FCLASS_TLC":""}},{"type":"Point","coordinates":[100.3293679,5.4136132],"properties":{"SCALERANK":4,"NATSCALE":50,"LABELRANK":6,"FEATURECLA":"Admin-1 capital","NAME":"George Town","NAMEPAR":"","NAMEALT":"Pinang|Penang","NAMEASCII":"George Town","ADM0CAP":0,"CAPIN":"","WORLDCITY":0,"MEGACITY":0,"SOV0NAME":"Malaysia","SOV_A3":"MYS","ADM0NAME":"Malaysia","ADM0_A3":"MYS","ADM1NAME":"Pulau Pinang","ISO_A2":"MY","NOTE":"","LATITUDE":5.413613,"LONGITUDE":100.329368,"POP_MAX":2500000,"POP_MIN":720202,"POP_OTHER":1273,"RANK_MAX":12,"RANK_MIN":11,"MEGANAME":"","LS_NAME":"George Town2","MAX_POP10":609951,"MAX_POP20":609951,"MAX_POP50":609951,"MAX_POP300":0,"MAX_POP310":0,"MAX_NATSCA":50,"MIN_AREAKM":115,"MAX_AREAKM":117,"MIN_AREAMI":44,"MAX_AREAMI":45,"MIN_PERKM":90,"MAX_PERKM":92,"MIN_PERMI":56,"MAX_PERMI":57,"MIN_BBXMIN":100.216667,"MAX_BBXMIN":100.216667,"MIN_BBXMAX":100.343812,"MAX_BBXMAX":100.35,"MIN_BBYMIN":5.266667,"MAX_BBYMIN":5.266667,"MIN_BBYMAX":5.475,"MAX_BBYMAX":5.475,"MEAN_BBXC":100.290517,"MEAN_BBYC":5.363517,"TIMEZONE":"Asia/Kuala_Lumpur","UN_FID":0,"POP1950":0,"POP1955":0,"POP1960":0,"POP1965":0,"POP1970":0,"POP1975":0,"POP1980":0,"POP1985":0,"POP1990":0,"POP1995":0,"POP2000":0,"POP2005":0,"POP2010":0,"POP2015":0,"POP2020":0,"POP2025":0,"POP2050":0,"MIN_ZOOM":5.1,"WIKIDATAID":"Q61092","WOF_ID":102023367,"CAPALT":0,"NAME_EN":"George Town","NAME_DE":"George Town","NAME_ES":"George Town","NAME_FR":"George Town","NAME_PT":"George Town","NAME_RU":"Джорджтаун","NAME_ZH":"乔治","LABEL":"","NAME_AR":"جورج تاون","NAME_BN":"জর্জ টাউন","NAME_EL":"Τζώρτζταουν","NAME_HI":"जॉर्ज टाउन","NAME_HU":"George Town","NAME_ID":"Georgetown","NAME_IT":"George Town","NAME_JA":"ジョージタウン","NAME_KO":"조지타운","NAME_NL":"George Town","NAME_PL":"George Town","NAME_SV":"George Town","NAME_TR":"George Town","NAME_VI":"Penang","NE_ID":1159149765,"NAME_FA":"جرج تاون پنانگ","NAME_HE":"ג'ורג' טאון","NAME_UK":"Джорджтаун","NAME_UR":"جارج ٹاؤن","NAME_ZHT":"喬治市","GEONAMESID":1735106,"FCLASS_ISO":"","FCLASS_US":"","FCLASS_FR":"","FCLASS_RU":"","FCLASS_ES":"","FCLASS_CN":"","FCLASS_TW":"","FCLASS_IN":"","FCLASS_NP":"","FCLASS_PK":"","FCLASS_DE":"","FCLASS_GB":"","FCLASS_BR":"","FCLASS_IL":"","FCLASS_PS":"","FCLASS_SA":"","FCLASS_EG":"","FCLASS_MA":"","FCLASS_PT":"","FCLASS_AR":"","FCLASS_JP":"","FCLASS_KO":"","FCLASS_VN":"","FCLASS_TR":"","FCLASS_ID":"","FCLASS_PL":"","FCLASS_GR":"","FCLASS_IT":"","FCLASS_NL":"","FCLASS_SE":"","FCLASS_BD":"","FCLASS_UA":"","FCLASS_TLC":""}},{"type":"Point","coordinates":[110.3299991,1.5299699],"properties":{"SCALERANK":4,"NATSCALE":50,"LABELRANK":6,"FEATURECLA":"Admin-1 capital","NAME":"Kuching","NAMEPAR":"","NAMEALT":"","NAMEASCII":"Kuching","ADM0CAP":0,"CAPIN":"","WORLDCITY":0,"MEGACITY":0,"SOV0NAME":"Malaysia","SOV_A3":"MYS","ADM0NAME":"Malaysia","ADM0_A3":"MYS","ADM1NAME":"Sarawak","ISO_A2":"MY","NOTE":"","LATITUDE":1.52997,"LONGITUDE":110.329999,"POP_MAX":570407,"POP_MIN":504963,"POP_OTHER":505134,"RANK_MAX":11,"RANK_MIN":11,"MEGANAME":"","LS_NAME":"Kuching","MAX_POP10":504963,"MAX_POP20":504963,"MAX_POP50":504963,"MAX_POP300":0,"MAX_POP310":0,"MAX_NATSCA":50,"MIN_AREAKM":97,"MAX_AREAKM":97,"MIN_AREAMI":37,"MAX_AREAMI":37,"MIN_PERKM":79,"MAX_PERKM":79,"MIN_PERMI":49,"MAX_PERMI":49,"MIN_BBXMIN":110.3,"MAX_BBXMIN":110.3,"MIN_BBXMAX":110.408333,"MAX_BBXMAX":110.408333,"MIN_BBYMIN":1.475,"MAX_BBYMIN":1.475,"MIN_BBYMAX":1.608333,"MAX_BBYMAX":1.608333,"MEAN_BBXC":110.351954,"MEAN_BBYC":1.544432,"TIMEZONE":"Asia/Kuching","UN_FID":0,"POP1950":0,"POP1955":0,"POP1960":0,"POP1965":0,"POP1970":0,"POP1975":0,"POP1980":0,"POP1985":0,"POP1990":0,"POP1995":0,"POP2000":0,"POP2005":0,"POP2010":0,"POP2015":0,"POP2020":0,"POP2025":0,"POP2050":0,"MIN_ZOOM":5.6,"WIKIDATAID":"Q220445","WOF_ID":102023573,"CAPALT":0,"NAME_EN":"Kuching","NAME_DE":"Kuching","NAME_ES":"Kuching","NAME_FR":"Kuching","NAME_PT":"Kuching","NAME_RU":"Кучинг","NAME_ZH":"古晋","LABEL":"","NAME_AR":"كوتشينغ","NAME_BN":"কুচিং","NAME_EL":"Κούτσινγκ","NAME_HI":"कुचिंग","NAME_HU":"Kuching","NAME_ID":"Kuching","NAME_IT":"Kuching","NAME_JA":"クチン","NAME_KO":"쿠칭","NAME_NL":"Kuching","NAME_PL":"Kuching","NAME_SV":"Kuching","NAME_TR":"Kuching","NAME_VI":"Kuching","NE_ID":1159149803,"NAME_FA":"کوچینگ","NAME_HE":"קוצ'ינג","NAME_UK":"Кучінг","NAME_UR":"کوچینگ","NAME_ZHT":"古晉","GEONAMESID":1735634,"FCLASS_ISO":"","FCLASS_US":"","FCLASS_FR":"","FCLASS_RU":"","FCLASS_ES":"","FCLASS_CN":"","FCLASS_TW":"","FCLASS_IN":"","FCLASS_NP":"","FCLASS_PK":"","FCLASS_DE":"","FCLASS_GB":"","FCLASS_BR":"","FCLASS_IL":"","FCLASS_PS":"","FCLASS_SA":"","FCLASS_EG":"","FCLASS_MA":"","FCLASS_PT":"","FCLASS_AR":"","FCLASS_JP":"","FCLASS_KO":"","FCLASS_VN":"","FCLASS_TR":"","FCLASS_ID":"","FCLASS_PL":"","FCLASS_GR":"","FCLASS_IT":"","FCLASS_NL":"","FCLASS_SE":"","FCLASS_BD":"","FCLASS_UA":"","FCLASS_TLC":""}},{"type":"Point","coordinates":[101.6950374044619,2.9325152122667406],"properties":{"SCALERANK":4,"NATSCALE":50,"LABELRANK":6,"FEATURECLA":"Admin-0 capital alt","NAME":"Putrajaya","NAMEPAR":"","NAMEALT":"","NAMEASCII":"Putrajaya","ADM0CAP":0,"CAPIN":"Administrative","WORLDCITY":0,"MEGACITY":0,"SOV0NAME":"Malaysia","SOV_A3":"MYS","ADM0NAME":"Malaysia","ADM0_A3":"MYS","ADM1NAME":"Selangor","ISO_A2":"MY","NOTE":"","LATITUDE":2.91402,"LONGITUDE":101.701947,"POP_MAX":67964,"POP_MIN":50000,"POP_OTHER":956431,"RANK_MAX":8,"RANK_MIN":7,"MEGANAME":"","LS_NAME":"Putrajaya","MAX_POP10":955607,"MAX_POP20":964830,"MAX_POP50":1651113,"MAX_POP300":0,"MAX_POP310":0,"MAX_NATSCA":50,"MIN_AREAKM":486,"MAX_AREAKM":805,"MIN_AREAMI":188,"MAX_AREAMI":311,"MIN_PERKM":467,"MAX_PERKM":737,"MIN_PERMI":290,"MAX_PERMI":458,"MIN_BBXMIN":101.358333,"MAX_BBXMIN":101.575,"MIN_BBXMAX":101.891667,"MAX_BBXMAX":101.891667,"MIN_BBYMIN":2.7,"MAX_BBYMIN":2.708333,"MIN_BBYMAX":3.041194,"MAX_BBYMAX":3.041194,"MEAN_BBXC":101.716617,"MEAN_BBYC":2.915909,"TIMEZONE":"Asia/Kuala_Lumpur","UN_FID":0,"POP1950":0,"POP1955":0,"POP1960":0,"POP1965":0,"POP1970":0,"POP1975":0,"POP1980":0,"POP1985":0,"POP1990":0,"POP1995":0,"POP2000":0,"POP2005":0,"POP2010":0,"POP2015":0,"POP2020":0,"POP2025":0,"POP2050":0,"MIN_ZOOM":5.6,"WIKIDATAID":"Q182378","WOF_ID":102023943,"CAPALT":1,"NAME_EN":"Putrajaya","NAME_DE":"Putrajaya","NAME_ES":"Putrajaya","NAME_FR":"Putrajaya","NAME_PT":"Putrajaya","NAME_RU":"Путраджая","NAME_ZH":"布城","LABEL":"","NAME_AR":"بوتراجاي","NAME_BN":"পুত্রজায়া","NAME_EL":"Πουτρατζάγια","NAME_HI":"पुत्रजय","NAME_HU":"Putrajaya","NAME_ID":"Putrajaya","NAME_IT":"Putrajaya","NAME_JA":"プトラジャヤ","NAME_KO":"푸트라자야","NAME_NL":"Putrajaya","NAME_PL":"Putrajaya","NAME_SV":"Putrajaya","NAME_TR":"Putrajaya","NAME_VI":"Putrajaya","NE_ID":1159149883,"NAME_FA":"پوتراجایا","NAME_HE":"פוטרג'איה","NAME_UK":"Путраджая","NAME_UR":"پتراجایا","NAME_ZHT":"布城","GEONAMESID":6697380,"FCLASS_ISO":"","FCLASS_US":"","FCLASS_FR":"","FCLASS_RU":"","FCLASS_ES":"","FCLASS_CN":"","FCLASS_TW":"","FCLASS_IN":"","FCLASS_NP":"","FCLASS_PK":"","FCLASS_DE":"","FCLASS_GB":"","FCLASS_BR":"","FCLASS_IL":"","FCLASS_PS":"","FCLASS_SA":"","FCLASS_EG":"","FCLASS_MA":"","FCLASS_PT":"","FCLASS_AR":"","FCLASS_JP":"","FCLASS_KO":"","FCLASS_VN":"","FCLASS_TR":"","FCLASS_ID":"","FCLASS_PL":"","FCLASS_GR":"","FCLASS_IT":"","FCLASS_NL":"","FCLASS_SE":"","FCLASS_BD":"","FCLASS_UA":"","FCLASS_TLC":""}},{"type":"Point","coordinates":[101.68869929106194,3.1397969439352504],"properties":{"SCALERANK":2,"NATSCALE":200,"LABELRANK":6,"FEATURECLA":"Admin-0 capital","NAME":"Kuala Lumpur","NAMEPAR":"","NAMEALT":"","NAMEASCII":"Kuala Lumpur","ADM0CAP":1,"CAPIN":"Official and le","WORLDCITY":1,"MEGACITY":1,"SOV0NAME":"Malaysia","SOV_A3":"MYS","ADM0NAME":"Malaysia","ADM0_A3":"MYS","ADM1NAME":"Selangor","ISO_A2":"MY","NOTE":"","LATITUDE":3.168612,"LONGITUDE":101.698037,"POP_MAX":1448000,"POP_MIN":1448000,"POP_OTHER":2667990,"RANK_MAX":12,"RANK_MIN":12,"MEGANAME":"Kuala Lumpur","LS_NAME":"Kuala Lumpur","MAX_POP10":2750755,"MAX_POP20":2750755,"MAX_POP50":3468789,"MAX_POP300":4983714,"MAX_POP310":4983714,"MAX_NATSCA":300,"MIN_AREAKM":666,"MAX_AREAKM":1700,"MIN_AREAMI":257,"MAX_AREAMI":657,"MIN_PERKM":350,"MAX_PERKM":1111,"MIN_PERMI":217,"MAX_PERMI":690,"MIN_BBXMIN":101.358333,"MAX_BBXMIN":101.491667,"MIN_BBXMAX":101.841667,"MAX_BBXMAX":101.891667,"MIN_BBYMIN":2.7,"MAX_BBYMIN":3.040173,"MIN_BBYMAX":3.475,"MAX_BBYMAX":3.475,"MEAN_BBXC":101.644598,"MEAN_BBYC":3.131431,"TIMEZONE":"Asia/Kuala_Lumpur","UN_FID":348,"POP1950":208,"POP1955":281,"POP1960":344,"POP1965":394,"POP1970":451,"POP1975":645,"POP1980":921,"POP1985":1016,"POP1990":1120,"POP1995":1213,"POP2000":1306,"POP2005":1405,"POP2010":1448,"POP2015":1519,"POP2020":1670,"POP2025":1820,"POP2050":1938,"MIN_ZOOM":4,"WIKIDATAID":"Q1865","WOF_ID":102023407,"CAPALT":0,"NAME_EN":"Kuala Lumpur","NAME_DE":"Kuala Lumpur","NAME_ES":"Kuala Lumpur","NAME_FR":"Kuala Lumpur","NAME_PT":"Kuala Lumpur","NAME_RU":"Куала-Лумпур","NAME_ZH":"吉隆坡","LABEL":"","NAME_AR":"كوالالمبور","NAME_BN":"কুয়ালালামপুর","NAME_EL":"Κουάλα Λουμπούρ","NAME_HI":"कुआलालम्पुर","NAME_HU":"Kuala Lumpur","NAME_ID":"Kuala Lumpur","NAME_IT":"Kuala Lumpur","NAME_JA":"クアラルンプール","NAME_KO":"쿠알라룸푸르","NAME_NL":"Kuala Lumpur","NAME_PL":"Kuala Lumpur","NAME_SV":"Kuala Lumpur","NAME_TR":"Kuala Lumpur","NAME_VI":"Kuala Lumpur","NE_ID":1159151317,"NAME_FA":"کوالالامپور","NAME_HE":"קואלה לומפור","NAME_UK":"Куала-Лумпур","NAME_UR":"کوالا لمپور","NAME_ZHT":"吉隆坡","GEONAMESID":1735161,"FCLASS_ISO":"","FCLASS_US":"","FCLASS_FR":"","FCLASS_RU":"","FCLASS_ES":"","FCLASS_CN":"","FCLASS_TW":"","FCLASS_IN":"","FCLASS_NP":"","FCLASS_PK":"","FCLASS_DE":"","FCLASS_GB":"","FCLASS_BR":"","FCLASS_IL":"","FCLASS_PS":"","FCLASS_SA":"","FCLASS_EG":"","FCLASS_MA":"","FCLASS_PT":"","FCLASS_AR":"","FCLASS_JP":"","FCLASS_KO":"","FCLASS_VN":"","FCLASS_TR":"","FCLASS_ID":"","FCLASS_PL":"","FCLASS_GR":"","FCLASS_IT":"","FCLASS_NL":"","FCLASS_SE":"","FCLASS_BD":"","FCLASS_UA":"","FCLASS_TLC":""}}]}}}